uc_seq,name,gugun,lat,lng,site,title,subtitle,address1,address2,homepage_u,usage_day,rprsntv_me,main_img_n,main_img_t,itemcntnts,geometry
70,만드리곤드레밥,강서구,35.177387,128.95245,만드리곤드레밥,만드리곤드레밥,-,강서구 공항앞길 85번길 13,-,-,11:00a.m. ~ 21:00p.m.,"돌솥곤드레정식, 호박오리훈제",https://www.visitbusan.net/uploadImgs/files/cntnts/20191209162810545_ttiel,https://www.visitbusan.net/uploadImgs/files/cntnts/20191209162810545_thumbL,"곤드레밥에는 일반적으로 건조 곤드레나물이 사용되는데, 이 곳은 생 곤드레나물을 사용하여 돌솥밥을 만든다. 된장찌개와 함께 열 가지가 넘는 반찬이 제공되는 돌솥곤드레정식이 인기 있다",POINT (128.95245 35.177387)
72,만호갈미 샤브샤브,강서구,35.101425,128.92914,-,만호갈미 샤브샤브,만호갈미 샤브샤브,강서구 르노삼성대로 602,-,-,11:00a.m. ~ 21:30p.m.,"갈미샤브샤브, 갈미수육",https://www.visitbusan.net/uploadImgs/files/cntnts/20191216135832825_ttiel,https://www.visitbusan.net/uploadImgs/files/cntnts/20191216135832825_thumbL,"샤브샤브, 수육, 구이 등 다양한 방식으로 갈미조개를 요리하는 갈미조개 전문 식당. 국물이 맛있기로 유명한 이 곳은 갈미샤브샤브와 갈미수육이 대표메뉴이다.",POINT (128.92914 35.101425)
77,민물가든,강서구,35.16055,128.89468,-,민물가든,민물가든,강서구 둔치중앙길5(봉림동),-,https://blog.naver.com/rladba1,11:00p.m. ~ 21:00p.m.,"묵은지붕어조림, 붕어찜",https://www.visitbusan.net/uploadImgs/files/cntnts/20191217101816206_ttiel,https://www.visitbusan.net/uploadImgs/files/cntnts/20191217101816206_thumbL,"30년간 운영해온 생선찜전문점으로, 전통방식인 나무통을 사용하여 조리하는 것이 특징이다. 20가지 이상의 재료로 만든 양념을 사용하는 이 곳은 묵은지 붕어조림과 붕어찜이 대표메뉴이다.",POINT (128.89468 35.16055)
83,부흥식당,영도구,35.085815,129.04071,-,부흥식당,45년차 진정한 내공의 제주산 자리돔 물회,영도구 절영로 104(영선동3가),-,-,11:00a.m. ~ 21:00p.m.,"자리돔회, 자리돔물회, 제주갈치국, 제주갈치찌개",https://www.visitbusan.net/uploadImgs/files/cntnts/20191217113924538_ttiel,https://www.visitbusan.net/uploadImgs/files/cntnts/20191217113924538_thumbL,영도의 유명한 제주 자리돔전문점으로 싱싱한 자리돔과 직접 만든 양념장의 맛이 무척 잘 어울린다. 당일 판매 할 수 있는 한정된 양만 판매하고 있는 이 곳은 제주갈치 요리로도 유명하다.,POINT (129.04071 35.085815)
94,가야할매밀면,연제구,35.185196,129.07988,가야할매밀면,가야할매밀면,가야할매밀면,부산 연제구 월드컵대로 145번길 32,-,-,11:00a.m. ~ 20:00p.m.,"물 밀면, 비빔밀면",https://www.visitbusan.net/uploadImgs/files/cntnts/20191217201857896_ttiel,https://www.visitbusan.net/uploadImgs/files/cntnts/20191217201857896_thumbL,b'ec9ca0ebaa85ed959c20ebb080eba9b4eca084ebacb8eca090ec9cbceba19c2c20ebb080eab080eba3a8ec979020ec98a5ec8898ec889820eca084ebb684ec9d8420ec849eec96b42c20eb8ba4eba5b820ebb080eba9b4eca084ebacb8eca090eb93a4ebb3b4eb8ba420eb8d9420ed8384eba0a5ec9e88eb8a9420eba9b4ec9db420ed8ab9eca795ec9db4eb8ba42e20ec9ca1ec8898eb8a9420eb8fbceca780ebbc88ec998020ec868cebbc88ec979020eab081eca28520ec95bcecb184ec998020ec97aceb9fac20ed959cec95bdec9eaceba5bc20ec849eec96b420eba78ceb93a4eab3a02c20ec82acec9db4eb939c20eba994eb89b4ec9db820eba7',POINT (129.07988 35.185196)
95,국제밀면,연제구,35.19689,129.07785,국제밀면,국제밀면,국제밀면,부산 연제구 중앙대로 1235번길 23-6,-,-,10:00a.m. ~ 20:00p.m.,"물밀면, 비빔밀면",https://www.visitbusan.net/uploadImgs/files/cntnts/20191217202633906_ttiel,https://www.visitbusan.net/uploadImgs/files/cntnts/20191217202633906_thumbL,b'ebb680ec82b0ec9d9820ec8898eba78eec9d8020ebb080eba9b4eca084ebacb8eca09020eca491ec9790ec849ceb8f8420eab080ec9ea520ec9ca0ebaa85ed959c20ec8b9deb8bb920eca49120ed959c20eab3b3ec9cbceba19c2c20ec868c20ec82aceab3a8eba78cec9d8420ec82acec9aa9ed959c20ec9ca1ec889820eb93b120eb8f85ecb0bdeca081ec9db820ebb0a9ec8b9dec9d9820ebb080eba9b4ec9d8420eba78ceb93a4eab3a020ec9e88eb8ba42e20ebb3b4ed86b520eab8b0eab384eba19c20ec9e98eba0a4eca78420ed8eb8ec9ca1ec9db420eab3a0ebaa85ec9cbceba19c20ec98aceba0a4eca78020eb8a94eb8db02c20ec9db420ea',POINT (129.07785 35.19689)
109,물꽁식당,중구,35.104504,129.0244,-,특유의 맵삭한 맛과 향채의 진한 향,물꽁식당,중구 흑교로 59번길3 (보수동2가),-,-,09:00a.m. ~ 22:00p.m.,"아구찜, 아구수육, 아구탕",https://www.visitbusan.net/uploadImgs/files/cntnts/20191218094154651_ttiel,https://www.visitbusan.net/uploadImgs/files/cntnts/20191218094154651_thumbL,"59년째 3대를 이어 운영해온 전통 있는 아귀요리전문점으로 신선한 아귀를 사용해 아구찜, 수육, 탕을 만든다. 자극적이지 않은 담백한 맛의 아구찜이 대표메뉴로 오래되었지만 청결한 가게가",POINT (129.0244 35.104504)
112,부산명물횟집,중구,35.09714,129.0312,-,혀에 착착 감기는 생선회 맛,부산명물횟집,중구 자갈치해안로 55,-,-,오픈 10:30 / 마감 22:00,"특회백밥1인분, 회비빔밥1인, 광어회1쟁반, 회무침",https://www.visitbusan.net/uploadImgs/files/cntnts/20191218095111181_ttiel,https://www.visitbusan.net/uploadImgs/files/cntnts/20191218095111181_thumbL,b'31393436eb8584ebb680ed84b020ec9ab4ec9881ed95b420ec98a820ebacb4ecb29920ec9ca0ebaa85ed959c20ed9a9feca791ec9cbceba19c20ec97aceb9fac20ec9ca0ebaa85ec9db8ec82aceb93a4ec9d9820eb8ba8eab3a8eca791ec9db4eab8b0eb8f8420ed9598eb8ba42e20eab491ec96b4ed9a8c20ed959c20eca091ec8b9cec979020eab3a0eab8b0ebbc88eba5bc20ed91b920eab3a0ec9584ec849c20eba78ceb93a020eca784ed9598eab3a020eb8bb4ebb0b1ed959c20eba791ec9d8020eab5adeab3bc20ec97acec84af20eab080eca78020ebb091ebb098ecb0acec9db420eb8298ec98a4eb8a9420ed9a8ceca095ec8b9dec9db420ec',POINT (129.0312 35.09714)
122,원조한양족발,중구,35.099903,129.02715,-,오랜 시간 부산의 역사와 함께해온 족발,원조한양족발,부산 중구 광복로 13,-,-,10:00a.m. ~ 01:00a.m.,"족발, 냉채족발",https://www.visitbusan.net/uploadImgs/files/cntnts/20191218102958937_ttiel,https://www.visitbusan.net/uploadImgs/files/cntnts/20191218102958937_thumbL,"35년 간 국내산 돼지 족을 사용하여 족발을 만들고 있는 유명한 족발전문점으로, 하루 2번 매장에서 삶은 신선하고 싱싱한 족발 맛으로 유명하다. 고기를 얇게 썰어 맛과 식감을 살린 족발과 냉",POINT (129.02715 35.099903)
124,이재모피자,중구,35.102104,129.0306,-,이재모피자,한국식 피자의 최고봉,중구 광복중앙로 31(신창동1가),-,-,11:00a.m. ~ 21:30p.m.,"치즈크러스트피자, 이재모불고기피자, 오븐스파게티",https://www.visitbusan.net/uploadImgs/files/cntnts/20191218103511820_ttiel,https://www.visitbusan.net/uploadImgs/files/cntnts/20191218103511820_thumbL,"30여년을 운영 중인 피자전문점으로 부산에서 피자가 대중화된 시기를 생각하면 상당한 전통을 자랑하는 유명한 곳이다. 국내산 임실치즈를 사용한 푸짐한 토핑의 피자가 특징이며, 변함없는",POINT (129.0306 35.102104)
141,거대갈비,해운대구,35.161617,129.16696,거대갈비,거대갈비,-,부산 해운대구 달맞이길 22,-,-,11:30a.m. ~ 22:00p.m.15:00~17:00 (break time),"등심(100g), 프리미엄 갈빗살(100g)",https://www.visitbusan.net/uploadImgs/files/cntnts/20191219093030634_ttiel,https://www.visitbusan.net/uploadImgs/files/cntnts/20191219093030634_thumbL,b'ecb59cec8381eb93b1eab889ec9d9820eab3a0eab8b0ec998020ecb59ceab3a0ec9d9820ec9b90ec9eaceba38ceba78cec9d8420ec82acec9aa9ed959ceb8ba4eb8a9420ed959cec9ab0ec88afebb688eab5acec9db4eca084ebacb8eca090ec9cbceba19c2c20eab994eb8194ed959c20ec8ba4eb82b4ec998020ecb99ceca088ed959c20eca090ec9b90eb93a4ec9db420ec9db8ec8381eca081ec9db4eb8ba42e20ecb59cec8381eb93b1eab889ec9d9820ed959cec9ab0ec9db8eba78ced81bc20eab080eab2a9eb8f8420eb8692ec9d8020ed8eb8ec9db4eca780eba78c2c20eca781ec9b90ec9db420eab3a0eab8b0eba5bc20eab5acec9b8ceca3',POINT (129.16696 35.161617)
146,금수복국 본점,해운대구,35.16243,129.1645,금수복국,금수복국,-,해운대구 중동1로 43번길23,-,-,24시간 운영,"은복지리탕, 활복지리탕",https://www.visitbusan.net/uploadImgs/files/cntnts/20200819172845727_ttiel,https://www.visitbusan.net/uploadImgs/files/cntnts/20200819172845727_thumbL,"부산에서 가장 유명한 식당 중 한 곳인 46년 전통의 복어요리전문점으로, 우수한 식재를 현지에서 엄선하여 공수하고, 모든 찬류 및 장류와 김치, 양념 등을 직접 만들어 사용한다.특히 외국인",POINT (129.1645 35.16243)
152,다온,해운대구,35.158123,129.14853,다온,다온,-,부산 해운대구 해운대해변로 154,-,https://www.instagram.com/daon_dining/,11:30a.m. ~ 22:00p.m.(break time 15:00~17:30),"다온상(1인), 송아리(1인)",https://www.visitbusan.net/uploadImgs/files/cntnts/20191219100305084_ttiel,https://www.visitbusan.net/uploadImgs/files/cntnts/20191219100305084_thumbL,"한옥의 전통적인 모티브를 활용한 인테리어가 인상적인 한정식전문점으로, 토속적인 소품 으로 장식된 별실이 마련되어 있어 격식 있는 모임의 장소로도 많이 찾는 곳. 한약재와 제철 음식 재",POINT (129.14853 35.158123)
154,동백섬횟집,해운대구,35.160427,129.15468,동백섬횟집,동백섬횟집,-,부산 해운대구 해운대해변로 209번나길 17,-,-,12:00p.m. ~ 22:00p.m.,"점심한정메뉴, 회(1인)",https://www.visitbusan.net/uploadImgs/files/cntnts/20200818125906889_ttiel,https://www.visitbusan.net/uploadImgs/files/cntnts/20200818125906889_thumbL,b'ed95b4ec9ab4eb8c8020eab7b8eb9e9ceb939ced98b8ed859420ec9db8eab7bcec979020ec9e88eb8a9420ec9e90ec97b0ec82b020ed999cec96b4ed9a8c20eca084ebacb820ed9a9feca791ec9cbceba19c2c20ec839dec84a0ed9a8ceba5bc20eca3bcebacb8ed9598eba9b420ebacb8ec96b4ec889920ed9a8c2c20eba98deab28c2c20eca084ebb3b52c20eab080ec9e90ebafb8eab5acec9db42c20ec8388ec9ab0ed8a80eab98020eb93b1ec9d9820eb8ba4ec9691ed959c20ebb091ebb098ecb0aceab3bc20ec8b9dec82ac20ed9b8420eba7a4ec9ab4ed839520eb93b1ec9d9820ec9a94eba6aceab08020ed95a8eabb9820eca09ceab3b5eb90',POINT (129.15468 35.160427)
156,르꽁비브,해운대구,35.176777,129.12552,르꽁비브,르꽁비브,고급스러움을 자랑하는 프렌치 레스토랑,해운대구 센텀북대로 60 센텀아이에스타워 110호,-,-,11:30a.m. ~ 22:00p.m.(Break Time 15:00~18:00),"런치, 디너",https://www.visitbusan.net/uploadImgs/files/cntnts/20191219101750249_ttiel,https://www.visitbusan.net/uploadImgs/files/cntnts/20191219101750249_thumbL,b'ebb680ec82b0ec9d9820ec9ca0ebaa85ebb2a0ec9db4ecbba4eba6acec9db820ec98b5ec8aa4ec9790ec849c20eb9fb0ecb9aded959c20eca084ed86b520ed9484eba08cecb99820eba088ec8aa4ed86a0eb9e912e20ed9484eb9e91ec8aa4ec9db8eb93a4ec9790eab28c20ed9484eba08cecb99820ed80b4eca784ec9d8420eab080eba5b4ecb390ec98a820ec85b0ed9484ec9d9820eca084ed86b520ed9884eca78020ec9a94eba6acebb295ec9cbceba19c20ec82aceab384eca08820eca09cecb2a020ec8b9dec9eaceba38ceba5bc20ec82acec9aa9ed959c20eb8ba4ec9691ed959c20ed9484eba08cecb998ecbd94ec8aa4ec9a94eba6aceba5',POINT (129.12552 35.176777)
163,문스시,해운대구,35.17031,129.16615,문스시,문스시,-,부산 해운대구 좌동순환로 43,-,-,am 11:30 ~ pm 22:0015:00~17:30 (break time),"오마카세 문 스시, 오마카세 스 스시",https://www.visitbusan.net/uploadImgs/files/cntnts/20200818130348030_ttiel,https://www.visitbusan.net/uploadImgs/files/cntnts/20200818130348030_thumbL,b'5456ed9484eba19ceab7b8eb9ea8ec9d8420ed86b5ed95b420ec868ceab09ceb909c20ec9ca0ebaa8520ec8990ed9484eab08020ec9ab4ec9881ed9598eb8a9420ec9dbcec8b9deca084ebacb8eca090ec9cbceba19c2c20eab8b0eb8c80eba5bc20ecb6a9eca1b1ed9598eb8a9420ec8898eca48020ec9e88eb8a9420ec9a94eba6aceb93a4eab3bc20eab994eb8194ed9598eab3a020ec84b8eba0a8eb909c20ec9db8ed858ceba6acec96b4eab08020ed8ab9eca795ec9db4eb8ba42e20ec8990ed9484eab08020ecb694ecb29ced9598eb8a9420ec9d8cec8b9dec9cbceba19c20eab5acec84b1eb9098eb8a9420ec98a4eba788ecb9b4ec84b820ec',POINT (129.16615 35.17031)
166,예이제,해운대구,35.16123,129.16664,예이제,예이제,-,부산 해운대구 해운대해변로298번길 29 해운대푸르지오시티 2층,-,-,12:00p.m. ~ 22:00p.m.15:00~17:00 (break time),"런치, 중코스",https://www.visitbusan.net/uploadImgs/files/cntnts/20200818133818412_ttiel,https://www.visitbusan.net/uploadImgs/files/cntnts/20200818133818412_thumbL,b'ed95b4ec9ab4eb8c8020ed95b4ebb380ec9db8eab7bcec979020ec9c84ecb998ed959c20ed959ceca095ec8b9deca084ebacb8eca090ec9cbceba19c2c20eab080eca1b1ebaaa8ec9e84ec9db4eb829820ec8690eb8b9820eb8c80eca09120eb93b1ec9cbceba19c20eba78eec9db420ecb0beeb8a9420eab3b3ec9db4eb8ba42e20eca3bcec9db8ec9db420eca781eca09120eab3a0eba5b820eca09cecb2a020ec8b9dec9eaceba38cec998020eca780ec9db8ec9db420ec9ab4ec9881ed9598eb8a9420eb868dec9ea5ec9790ec849c20ed82a4ec9ab420ecb184ec868ceba5bc20ec82acec9aa9ed9598eb8a94ec9db420eab3b3ec9d8020eba8b9eb',POINT (129.16664 35.16123)
169,원조석대추어탕,해운대구,35.2195,129.12512,원조석대추어탕,원조석대추어탕,-,부산 해운대구 반송로 571번길 5,-,-,08:30a.m. ~ 21:00p.m.,"추어탕, 가오리찜",https://www.visitbusan.net/uploadImgs/files/cntnts/20191219104936271_ttiel,https://www.visitbusan.net/uploadImgs/files/cntnts/20191219104936271_thumbL,b'ec9e85eab5aceba5bc20eb93a4ec96b4ec849ceba9b420eab080eb939d20ec8c93ec9db820ec9ea5ec9e91eab3bc20ec9584eab681ec9db4ec979020ec98aceba0a420eca78420ecbba4eb8ba4eb9e8020ebacb4ec87a0ec86a5ec9db420eb8888ec979020eb93a4ec96b4ec98a8eb8ba42eec9ca0ebaa85ed959c20ecb694ec96b4ed8395eca084ebacb8eca090ec9db820ec9db420eab3b3ec9d9820ecb694ec96b4ed8395ec9d802c20eab095ed959c20ed9994eba0a5ec9cbceba19c20ec98a4eb9e9820eb8193ec97ac20ebb680eb939ceb9fbdeab3a020ed928debb680ed959c20eba79bec9db420ed8ab9eca795ec9cbceba19c2c20eb85bceab3',POINT (129.12512 35.2195)
190,원조할매복국,해운대구,35.160915,129.17152,원조할매복국,원조할매복국,-,달맞이길62번길 1,-,-,오픈 07:00 / 마감 21:30,"복지리, 흰밀복수육",https://www.visitbusan.net/uploadImgs/files/cntnts/20191219134018171_ttiel,https://www.visitbusan.net/uploadImgs/files/cntnts/20191219134018171_thumbL,b'e28098ebb3b5eab5adecb48ce28099ec9cbceba19c20ec958ceba0a4eca78420ebafb8ed8fac20eca780ec97adec9d9820eb8c80ed919ceca081ec9db820ebb3b5ec9a94eba6ac20eca084ebacb8eca090ec9cbceba19c2c20ebb680ec82b020ed96a5ed86a020ec9d8cec8b9deca090203331eab3b320eca491ed9598eb8298ec9db4eb8ba42e20ebb3b5ec96b4eba5bc20ec82acec9aa9ed959c20eba791ec9d8020ed8395ec9db820ebb3b5eca780eba6aceab08020eb8c80ed919ceba994eb89b4ec9db4eba9b02c20ebb3b5ec96b4eca3bdeab3bc20ec8898ec9ca12c20ebb3b5ebb688eab3a0eab8b0ec998020ebb3b5ec96b4ecb09c20eb93b1ec',POINT (129.17152 35.160915)
193,젠스시,해운대구,35.170826,129.1715,젠스시,젠스시,-,해운대구 대천로42번길28-5,-,https://app.catchtable.co.kr/ct/shop/zensushi,18:00p.m. ~ 22:00p.m.,"젠스시초밥, 스시 오마카세",https://www.visitbusan.net/uploadImgs/files/cntnts/20191219135236542_ttiel,https://www.visitbusan.net/uploadImgs/files/cntnts/20191219135236542_thumbL,b'ed95b4ec9ab4eb8c80ec9d9820ec9ca0ebaa8520ec9dbcec8b9deca084ebacb8eca090ec9cbceba19c2c20ebaa85ec9db820ec9db8eca69dec849ceba5bc20ebb09bec9d8020ec98a4eb848820ec8990ed9484eab08020ec9ab4ec9881ed9598eba9b02c20eca3bcebb0a920ebb684ec9c84eab8b0eab08020ec9784eab2a9ed9598eab3a02c20ec9c84ec839dec979020ebacb4ecb29920ec8ba0eab2bdec9d8420ec93b0eb8a9420eab283ec9cbceba19ceb8f8420ec9ca0ebaa85ed9598eb8ba42e20ec97b420eab080eca780ec9d9820ecb488ebb0a5eab3bc20ed95a8eabb9820ebafb8ec868cec8b9ceba3a82c20eb8baceab18020ecb09c2c20ed',POINT (129.1715 35.170826)
200,옛날 오막집,서구,35.108913,129.0199,옛날 오막집,옛날 오막집,씹으면 씹을수록 고소한 곱창요리,부산 서구 구덕로 274번길 14,-,-,12:00p.m. ~ 21:30p.m.,"특양 150g, 곱창 160g, 대창 160g, 양념갈비 280g",https://www.visitbusan.net/uploadImgs/files/cntnts/20191219141858821_ttiel,https://www.visitbusan.net/uploadImgs/files/cntnts/20191219141858821_thumbL,b'31393538eb8584ebb680ed84b020ec9ab4ec9881ed9598eab3a020ec9e88eb8a9420ec9ca0ebaa85ed959c20eb82b4ec9ea5eab5acec9db4eca084ebacb8eca090ec9cbceba19c20ec98a4eb9e9c20ec84b8ec9b9420ec82aceb9e91ebb09beab3a020ec9e88eb8a9420eab3b3ec9db4eb8ba42e20ec9db420eab3b3ec9d9820eb82b4ec9ea5eab5acec9db4eb8a9420eca084ed86b5eba78ced81bcec9db4eb829820eab081ebb384ed959c20eba79bec9d8420ec9e90eb9e91ed9598eb8a94eb8db020ed95a8eabb9820eca09ceab3b5eb9098eb8a9420ec9ea5ec9584ecb08cec998020eb8298ebacbceb93a4ec9d8420eab381eb93a4ec97ac20eba8',POINT (129.0199 35.108913)
201,평안도족발,해운대구,35.161945,129.16637,평안도족발,평안도족발,-,부산 해운대구 달맞이길 14,-,-,12:00p.m. ~ 24:00a.m.,"족발, 마늘족발",https://www.visitbusan.net/uploadImgs/files/cntnts/20191219141936064_ttiel,https://www.visitbusan.net/uploadImgs/files/cntnts/20191219141936064_thumbL,"30년 넘게 한자리에서 운영해온 전통 있는 족발전문점으로, 이 지역 사람들에게 오래 사랑 받아온 곳이다. 오래된 식당답게 족발 특유의 냄새가 없는 깔끔하고 균형 잡힌 족발의 맛이 특징이며",POINT (129.16637 35.161945)
203,한우숯불양곱창,해운대구,35.165897,129.17079,한우숯불양곱창,한우숯불양곱창,-,부산 해운대구 해운대해변로 385,-,-,16:00p.m. ~ 22:00p.m.,"특양(200g), 전골",https://www.visitbusan.net/uploadImgs/files/cntnts/20200819165333332_ttiel,https://www.visitbusan.net/uploadImgs/files/cntnts/20200819165333332_thumbL,"해운대 중동역 인근의 양곱창 전문점인 이 곳은 특히 소의 첫 번째 위인 특양 양념구이가 유명하다. 주문과 동시에 특제양념을 발라, 점원이 구워주는 이 곳의 특양 구이는 무척 부드 러우면서",POINT (129.17079 35.165897)
204,쌍둥이돼지국밥,남구,35.131783,129.09239,쌍둥이돼지국밥,쌍둥이돼지국밥,-,부산 남구 유엔평화로 35-1,-,-,am 09:00 ~ am 24:00,"돼지국밥, 수육백반",https://www.visitbusan.net/uploadImgs/files/cntnts/20191219143010570_ttiel,https://www.visitbusan.net/uploadImgs/files/cntnts/20191219143010570_thumbL,"식사시간에는 길게 줄을 선 모습을 볼 수 있는 유명한 식당으로, 부산의 수 많은 돼지국밥 전문점 중에서도 손에 꼽히는 식당 중 한 곳이다. 아주 부드러운 돼지고기수육이 유명하다.",POINT (129.09239 35.131783)
215,이층집 564-9,남구,35.13028,129.10002,이층집 564-9,바삭한 돈가스와 특제 소스의 환상적 궁합,이층집 564-9,"남구 유엔로217, 2층(대연동)",-,https://www.instagram.com/2nd_floor_5649,11:00a.m. ~ 21:00p.m.15:00~17:00 (break time ),"등심돈까스, 생선가스, 함박스테이크",https://www.visitbusan.net/uploadImgs/files/cntnts/20191219153031872_ttiel,https://www.visitbusan.net/uploadImgs/files/cntnts/20191219153031872_thumbL,"심플하고 모던한 인테리어가 인상적인 경양식전문식당으로, 등심 돈가스는 고소한 브로콜리 크림스프와 신선한 생 등심 돼지고기 커틀렛과 계절 샐러드가 함께 나온다. 바삭한 돈가스와 특제",POINT (129.10002 35.13028)
218,초원복국 대연본점,남구,35.137794,129.10591,-,초원복국대연본점,복국 안에 실하게 들어가 있는 복,남구 황령대로492번길 30,-,-,09:00a.m. ~ 21:00p.m.,"은복국, 참복복국, 복튀김, 복코스요리",https://www.visitbusan.net/uploadImgs/files/cntnts/20191219160045041_ttiel,https://www.visitbusan.net/uploadImgs/files/cntnts/20191219160045041_thumbL,"무척 유명한 복어요리전문점인 이곳은 50년 경력의 일식요리사인 아버지와 부산 최초의 특수조리사 복어자격증 소지자인 아들이 2대째 경영하고 있는 곳으로, 언제나 많은 손님들로 북적이는",POINT (129.10591 35.137794)
234,석화한정식,동구,35.13881,129.06189,석화한정식,석화한정식,-,조방로 21,-,-,오픈 11:30 / 마감 22:00,"석화 한정식, 석화고향 한정식",https://www.visitbusan.net/uploadImgs/files/cntnts/20220513092736141_ttiel,https://www.visitbusan.net/uploadImgs/files/cntnts/20220513092736141_thumbL,b'ecb0a8eba0a4eca780eb8a9420ec9d8cec8b9d20ed9598eb8298ed9598eb8298eab08020eba8b9eab8b020ec9584eab98cec9ab820eca095eb8f84eba19c20ec84acec84b8ed9598eab28c20eb8bb4eab2a8eca0b820eb8298ec98a8eb8ba42e20eab2a9ec8b9dec9e88eb8a9420ebaaa8ec9e84ec9d9820ec9ea5ec868ceba19ceb8f8420ec9ca0ebaa85ed959c20eab3a0eab889ed959ceca095ec8b9deca084ebacb8eca090ec9cbceba19c2c20ebb284ec84afed8395ec8898ec998020eca084ebb3b5ecb488eab08020eb8298ec98a4eb8a9420eab3a0ed96a5ed959ceca095ec8b9deab3bc20eab480ec9e90ec889920ed9a8cec998020eab088eb',POINT (129.06189 35.13881)
252,함경면옥,동래구,35.20263,129.08307,함경면옥,함경면옥,-,충렬대로 213,-,-,오픈 11:00 / 마감 22:00,"냉면, 왕갈비탕, 왕만두 소",https://www.visitbusan.net/uploadImgs/files/cntnts/20220512102852754_ttiel,https://www.visitbusan.net/uploadImgs/files/cntnts/20220512102852754_thumbL,b'3330eb858420ec9ea5ec9db8ec9d9820ec869cec94a8eba19c20eba78ceb93a020eb8389eba9b4ec9d9820eba79bec9d8020ebb984eab590ed95a0eba78ced959c20eb8c80ec8381ec9db420eb939cebacbceb8ba42e20ebb680ec82b0ec9790ec849c20eab080ec9ea520ec9ca0ebaa85ed959c20eb8389eba9b4eca084ebacb8eca09020eca49120ed959c20eab3b3ec9cbceba19c2c20eab384eca088ec9d8420eab080eba6aceca78020ec958aeab3a020ed95adec838120eba78eec9d8020ec82aceb9e8ceb93a4ec9db420ecb0beec9584ec98a4eb8a9420eab283ec9db420ec9db4eab3b3ec9d9820ebb380ed9598eca78020ec958aeb8a9420eb',POINT (129.08307 35.20263)
577,영변횟집,해운대구,35.1808,129.20293,-,영변횟집,영변횟집,부산 해운대구 송정해변로 30,-,-,11:00a.m. ~ 21:30p.m.,"세꼬시(넙치), 모듬회",https://www.visitbusan.net/uploadImgs/files/cntnts/20200818134302422_ttiel,https://www.visitbusan.net/uploadImgs/files/cntnts/20200818134302422_thumbL,b'ebbc88ec998020ed95a8eabb9820eba8b9eb8a9420ec9e98eab28c20ec8dac20ec84b8eabcacec8b9ceab08020ed8ab9ed9e8820ec9ca0ebaa85ed959c20ec839dec84a0ed9a8ceca084ebacb8eca090ec9cbceba19c2c20eb8f84eb8ba4eba6ac2c20eab491ec96b42c20ec9ab0eb9fad2c20eb8f8ceb8f942c20eb868dec96b420eb93b120eb8ba4ec9691ed959c20ed999cec96b4eba5bc20ecb2a0ec979020eb94b0eb9dbc20eca690eab8b820ec889820ec9e88eb8ba42e20ed8ab9ed9e8820eab080ec9e90ebafb8eb829820eab491ec96b4eba5bc20ec9db4ec9aa9ed959c20ec84b8eabcacec8b9ceab08020ec9db8eab8b020eba994eb89b4eb',POINT (129.20293 35.1808)
865,방코,강서구,35.11546,128.92226,방코,방코,-,"부산 강서구 새진목길 51, 1,2층",-,-,am 11:30 ~ pm 20:30,"풍기 트러플 피자 , 무화과 블루치즈 피자",https://www.visitbusan.net/uploadImgs/files/cntnts/20200818100408773_ttiel,https://www.visitbusan.net/uploadImgs/files/cntnts/20200818100408773_thumbL,b'ed8ab9ec9db4ed959c20ec99b8eab480ec9d9820ec9db420eab1b4ebacbcec9d8020ed9994eb8d95ec979020eab5acec9ab420ed94bcec9e90ec998020ed8c8cec8aa4ed8380eba5bc20eba78ceb939ceb8a9420eab3b3ec9db4eb8ba42e20ec8ba0ec84a0ed959c20ec9eaceba38cec998020ec8388eba19cec9ab420eca1b0eba6acebb295ec9d8420ec82acec9aa9ed9598ec97ac20ed928debb680ed9598eab3a020eb8bb4ebb0b1ed959c20eba79bec9d8420eb82b4eb8a9420eab283ec9db420ed8ab9eca795ec9db4eb8ba42e20ed8ab8eb9faced948ceba19c20ed96a5ec9d8420eb82b820ed94bcec9e90ec998020ebb894eba3a8ecb998eca6',POINT (128.92226 35.11546)
877,얼크니손칼국수(기장본점),기장군,35.255756,129.21614,얼크니손칼국수(기장본점),얼크니손칼국수(기장본점),-,부산 기장군 기장읍 차성로 417번길 18,-,-,am 11:20 ~ pm 21:30,"얼크니손칼국수, 만두",https://www.visitbusan.net/uploadImgs/files/cntnts/20200819144753937_ttiel,https://www.visitbusan.net/uploadImgs/files/cntnts/20200819144753937_thumbL,"간단히 준비된 샤브샤브를 먹은 후 직접 면을 넣고 조리해 먹는 칼국수 가격에 비해 푸짐한 재료들이 특징이다. 먼저 샤브샤브를 먹고 그 국물에 칼국수를 만들어 먹고 나면, 점원이 볶음밥을",POINT (129.21614 35.255756)
886,곤국,남구,35.1477,129.06758,곤국,곤국,-,부산 남구 황령대로74번길 51-1,-,-,am 11:30 ~ pm 20:30,"한우 곰탕, 한우스지수육",https://www.visitbusan.net/uploadImgs/files/cntnts/20200819150211450_ttiel,https://www.visitbusan.net/uploadImgs/files/cntnts/20200819150211450_thumbL,"곰탕전문식당인 이 곳은 오래 끓여 부드러운 고기와 맛이 진한 국물이 특징으로, 밥을 말아서 나오지 않고, 갓 지은 솥밥이 따로 제공된다.",POINT (129.06758 35.1477)
887,다이닝센 부산본점,남구,35.124435,129.11235,다이닝센 부산본점,다이닝센 부산본점,-,부산 남구 용호로 88,-,-,am 10:30 ~ pm 22:30,"쇠고기 찹스테이크 샐러드, 목살필라프",https://www.visitbusan.net/uploadImgs/files/cntnts/20200820090928003_ttiel,https://www.visitbusan.net/uploadImgs/files/cntnts/20200820090928003_thumbL,"패밀리레스토랑 다이닝센은 직접 만드는 소스들을 사용하고, 비교적 저렴한 가격에 비해 높은 수준의 음식들이 제공된다. 행사를 위한 시설과 공간도 잘 준비되어 있다.",POINT (129.11235 35.124435)
890,오륙도 가원,남구,35.106773,129.11171,오륙도 가원,오륙도 가원,-,부산 남구 백운포로 14,-,-,am 11:30 ~ pm 22:00,"등심, 갈빗살",https://www.visitbusan.net/uploadImgs/files/cntnts/20200818151745396_ttiel,https://www.visitbusan.net/uploadImgs/files/cntnts/20200818151745396_thumbL,"건축상을 받은 아름다운 외관과 잘 가꾸어진 넓은 잔디정원이 인상적이다. 이 곳은 유명한 한우숯불구이 전문식당으로, 제공되는 음식과 서비스 등 모든 것이 무척 고급스럽다.",POINT (129.11171 35.106773)
892,한우랑,남구,35.130306,129.0949,한우랑,한우랑,-,부산 남구 유엔로 171,-,-,am 10:00 ~ pm 22:00,"한우 특수부위 (100g), 한우 꽃등심(100g)",https://www.visitbusan.net/uploadImgs/files/cntnts/20200818152932317_ttiel,https://www.visitbusan.net/uploadImgs/files/cntnts/20200818152932317_thumbL,"한우 숯불구이 전문점으로 모든 메뉴는 국내에서 생산된 질 좋은 재료만 사용해 만들어진다. 한우는 특히 굽는 솜씨에 따라 맛의 차이가 크게 나는데, 이 곳은 숙련된 점원이 고기를 구워준다.",POINT (129.0949 35.130306)
893,해남식당,남구,35.134193,129.11122,해남식당,해남식당,-,남구 분포로 145(용호동 W스퀘어),용호동 더블유스퀘어,-,am 11:30 ~ pm 22:00월~목 브레이크타임 15:00 ~ 17:00,"묵은지수육한판, 옛날김치찌개",https://www.visitbusan.net/uploadImgs/files/cntnts/20200818153601185_ttiel,https://www.visitbusan.net/uploadImgs/files/cntnts/20200818153601185_thumbL,b'eab980ecb998ec9a94eba6aceca084ebacb8ec8b9deb8bb9ec9db820ec9db420eab3b3ec9d8020ebb0b0ecb694ec82b0eca780eba19c20ec9ca0ebaa85ed959c20ed95b4eb82a8ec9d9820ebb0b0ecb694eba5bc20ec82acec9aa920ed9598ec97ac2c20ec98a4eb9e9c20ec8b9ceab08420ec8899ec84b1ec8b9ced82a820ebacb5ec9d80eca780eba5bc20ec82acec9aa9ed9598eb8a9420eab283ec9db420ed8ab9eca795ec9db4eba9b02c20eb8ba4ec9691ed959c20eab980ecb998ec9a94eba6aceba5bc20eba8b9ec9d8420ec889820ec9e88eb8ba42e20ed95b4eb82a8ebacb5ec9d80eca780ec979020eb8c80ed959c20eb8692ec9d8020ec9e',POINT (129.11122 35.134193)
904,금강만두,동래구,35.196102,129.06027,금강만두,금강만두,-,부산 동래구 사직북로5번길 11,-,-,am 10:30 ~ pm 21:30,"충무세트(충무김밥+만두국), 육개장",https://www.visitbusan.net/uploadImgs/files/cntnts/20200818170548384_ttiel,https://www.visitbusan.net/uploadImgs/files/cntnts/20200818170548384_thumbL,"찾기 힘든 골목에 위치해 미식가들만 찾아가는 숨은 가게였던 이 가게는 현재 사람들의 왕래가 많은 자리의 큰 점포로 옮겨 운영하고 있다. 만두가 맛있기도 하지만, 사실 이 곳은 매우면서도",POINT (129.06027 35.196102)
911,고을산채,영도구,35.093414,129.0448,고을산채,고을산채,-,부산 영도구 대교로 2번길 7,-,-,am 11:30 ~ pm 21:30,"산채정식, 소고기버섯전골",https://www.visitbusan.net/uploadImgs/files/cntnts/20200818175032095_ttiel,https://www.visitbusan.net/uploadImgs/files/cntnts/20200818175032095_thumbL,b'32303036eb8584ebb680ed84b020ec9ab4ec9881ed95b4ec98a820ed959cec8b9deb8bb9ec9cbceba19c2c20ebaaa8eb93a020ebb098ecb0aceb93a4ec9d8420eca3bcec9db8ec9db420eca781eca09120eba78ceb93a0eb8ba42e20eca090ec8bacec9790eb8a9420eca09cecb2a0ebb098ecb0acec9db420ed95a8eabb9820eca09ceab3b5eb9098eb8a9420ec82b0ecb184eca095ec8b9d20ebb984ebb994ebb0a5ec9d8420eba8b9ec9cbceb9fac20ec98a4eb8a9420ec82aceb9e8cec9db420eba78eec9cbceba9b02c20eca080eb8581ec9790eb8a9420ec868ceab3a0eab8b0ebb284ec84afeca084eab3a8eab3bc20eab3b1ecb0bdeca084eab3',POINT (129.0448 35.093414)
917,석화정,영도구,35.077095,129.07231,석화정,석화정,-,부산 영도구 동삼로 42번길 16-11,-,-,am 09:00 ~ pm 21:30,"굴국밥, 생굴",https://www.visitbusan.net/uploadImgs/files/cntnts/20200819094049234_ttiel,https://www.visitbusan.net/uploadImgs/files/cntnts/20200819094049234_thumbL,b'3138eb8584eab08420ec9ab4ec9881ed95b420ec98a820eab5b4ec9a94eba6ac20eca084ebacb8eca090ec9cbceba19c2c20ec9eacecb2a020ec839deab5b42c20eab5b4eab5acec9db42c20eab5b4ed8a80eab9802c20eab5b4ed8c8ceca0842c20eab5b4eab980ecb99820eb93b120eab5b4ec9d8420ec9db4ec9aa9ed959c20eb8ba4ec9691ed959c20ec9d8cec8b9deb93a4ec9d8420eca690eab8b820ec889820ec9e88eb8ba42e20ed8ab9ed9e882c20eb8c80ed919ceba994eb89b4ec9db820eab5b4eab5adebb0a5ec9d8020ec8ba0ec84a0ed959c20ec9e90ec97b0ec82b020eab5b4ec9d8420ec82acec9aa920ed9598ec97ac2c20eab994eb',POINT (129.07231 35.077095)
928,북경,연제구,35.18377,129.08086,북경,북경,-,부산 연제구 중앙대로 1076번길 11,-,-,am 11:00 ~ pm 21:0015:30~17:00 (BREAK TIME),"짜장면, 짬뽕",https://www.visitbusan.net/uploadImgs/files/cntnts/20200819172514790_ttiel,https://www.visitbusan.net/uploadImgs/files/cntnts/20200819172514790_thumbL,b'ec97b0ec82b0eb8f99ec9d9820eca491ec8baceab080eab3a8ebaaa9ec979020ec9c84ecb998ed959c20eca491ec8b9deb8bb9ec9cbceba19c20ec9a94eba6aceba5bc20eca084ebacb8ec9cbceba19c20ed9598ec97ac20ec9db420eca780ec97ad20ed9a8cec82acec9b90eb93a4ec9db420ed9a8cec8b9dec9ea5ec868ceba19ceb8f8420ec9e90eca3bc20ecb0beeb8a9420eab3b3ec9db4eb8ba42e20ebaaa8eb93a020eba994eb89b4ec9d9820ec8898eca480ec9db420eb8692ec9d8020eab3b3ec9db4eab8b0eb8f8420ed9598eca780eba78c2c20ed8ab9ed9e8820eca79cec9ea5eba9b4ec9db420eba79bec9e88eab8b0eba19c20ec9ca0eb',POINT (129.08086 35.18377)
929,연산낙지해물탕,연제구,35.182316,129.10692,연산낙지해물탕,연산낙지해물탕,-,부산 연제구 과정로 121,-,-,am 11:30 ~ pm 21:3015:00~17:30 (BREAK TIME),"해물탕, 산낙지전골",https://www.visitbusan.net/uploadImgs/files/cntnts/20200819103408604_ttiel,https://www.visitbusan.net/uploadImgs/files/cntnts/20200819103408604_thumbL,b'ed95b4ebacbced8395ec9d8020ec9b90eb9e9820ed91b8eca790ed959c20ed95b4ec82b0ebacbceb93a4ec9db420eb8bb4eab2a820eb8298ec98a4eb8a9420ec9d8cec8b9dec9db4eca780eba78c2c20ec9db420eab3b3ec9d9820ed95b4ebacbced8395ec9d8020ec9d8cec8b9dec9d8420ec9e98ebaaa8eba5b4eb8a9420ec82aceb9e8ceb8f8420ec8bb1ec8bb1ed9598eb8ba4eb8a9420eab283ec9d8420ec958c20ec889820ec9e88eb8a9420ed95b4ec82b0ebacbceb93a4ec9db420eb9a9ceabb91ec9db420eb8babed9e88eca78020ec958aec9d8420eca095eb8f84eba19c20eb8bb4eab2a820eb8298ec98a8eb8ba42e20ed95b4ebacbced83',POINT (129.10692 35.182316)
932,웰빙여행,연제구,35.181526,129.07504,웰빙여행,웰빙여행,-,부산 연제구 중앙대로 1043번길 50,-,-,am 10:00 ~ pm 21:30,"매생이칼국수, 고기만두",https://www.visitbusan.net/uploadImgs/files/cntnts/20200819170519954_ttiel,https://www.visitbusan.net/uploadImgs/files/cntnts/20200819170519954_thumbL,b'ebb680ec82b0ec8b9cecb2ad20eab7bcecb298ec9d9820ecb9bceab5adec8898ec998020eba78ceb9190eca084ebacb8eca090ec9cbceba19c2c20eba7a4ec839dec9db420ecb9bceab5adec88982c20eb93a4eab9a820ecb9bceab5adec889820eb93b120eca1b0eab88820ed8ab9ebb384ed959c20ecb9bceab5adec8898ec998020ed95a8eabb9820ed91b8eca790ed959c20eba78ceb9190eca084eab3a8ec9d8420eba8b9ec9d8420ec889820ec9e88eb8a9420eab3b3ec9db4eb8ba42e20eba78ceb9190eb8a9420eba7a4ec9dbceba7a4ec9dbc20eca781eca091eba78ceb93a4eba9b02c20ec97aceba684ec9790eb8a9420eca781eca09120ea',POINT (129.07504 35.181526)
933,옻바다전복 삼계탕,연제구,35.18473,129.08128,옻바다 전복삼계탕,옻바다 전복삼계탕,-,부산 연제구 월드컵대로 119번길 16,-,http://cityfood.co.kr/file2/h_0112/55725/index.html,am 10:00 ~ pm 22:00,"옻삼계탕, 삼계탕",https://www.visitbusan.net/uploadImgs/files/cntnts/20200819105118416_ttiel,https://www.visitbusan.net/uploadImgs/files/cntnts/20200819105118416_thumbL,b'ec97b0ec82b0eb8f9920eca491ec8baceab080eab3a8ebaaa9ec979020ec9c84ecb998ed959c20ec82bceab384ed8395eca084ebacb8eca090ec9cbceba19c2c20eb8c80ed919ceca081ec9db820ebb3b4ec9691ec9d8cec8b9dec9db820ec98bbeb8298ebacb4ec82bceab384ed8395ec979020eca084ebb3b5ec9d8420ecb694eab080ed9598ec97ac20eba8b9ec9d8420ec889820ec9e88eb8a9420eab283ec9db420ed8ab9eca795ec9db4eb8ba42e20ec8b9deca084eca3bceba19c20ec98bbec88a0ec9db420eca09ceab3b5eb9098eb8a9420ec9db420eab3b3ec9d80205456ed9484eba19ceab7b8eb9ea8ec9790eb8f8420ec868ceab09c20eb',POINT (129.08128 35.18473)
935,참참부자,연제구,35.185333,129.08035,참참부자,참참부자,-,부산 연제구 월드컵대로 145번길 23,-,-,am 11:30 ~ pm 22:00,"일식코스, 참치코스",https://www.visitbusan.net/uploadImgs/files/cntnts/20200819105753999_ttiel,https://www.visitbusan.net/uploadImgs/files/cntnts/20200819105753999_thumbL,b'ec97b0ec82b0eb8f9920eca491ec8baceab080eab3a8ebaaa9ec979020ec9c84ecb998ed959c20ec9dbcec8b9decbd94ec8aa4eca084ebacb8eca090ec9cbceba19c2c20ecb0b8ecb998ec998020ec9e90ec97b0ec82b0ed9a8ceba5bc20eba79bebb3bc20ec889820ec9e88eb8a9420eab3b3ec9db4eb8ba42e20ecbd94ec8aa4ec9a94eba6aceba5bc20eca084ebacb8ec9cbceba19c20ed9598eb8a9420eab3b3ec9db820eba78ced81bc20ed9a8ceb8a9420ebacbceba1a0ec9db4eba9b02c20ec9d8cec8b9d20ed9598eb8298ed9598eb8298eab08020eb8692ec9d8020ec8898eca480ec9db4eb8ba42eeca090ec8baced959ceca095eba994eb89',POINT (129.08035 35.185333)
936,팔미초밥,연제구,35.184906,129.0818,팔미초밥,팔미초밥,-,부산 연제구 월드컵대로 119번길 8,-,-,am 11:30 ~ pm 22:00,"생선초밥, 코스요리",https://www.visitbusan.net/uploadImgs/files/cntnts/20200819110257649_ttiel,https://www.visitbusan.net/uploadImgs/files/cntnts/20200819110257649_thumbL,"부산의 대표적인 일식전문점 중 한 곳으로, 상업지역인 이 지역에서도 손님을 대접하기 좋은 곳으로 유명한 식당이다. 30년 경력의 오너쉐프가 운영하고 있으며, 이 곳의 코스요리는 가격에 비",POINT (129.0818 35.184906)
944,남촌,북구,35.21074,129.00595,남촌,남촌,-,부산 북구 금곡대로 8번길 14,-,-,am 11:00 ~ pm 22:00,"흑돼지 한마리(800g), 흑돼지 반마리(600g)",https://www.visitbusan.net/uploadImgs/files/cntnts/20200819154352300_ttiel,https://www.visitbusan.net/uploadImgs/files/cntnts/20200819154352300_thumbL,"청정지역인 지리산 아래 산청의 흑돼지만 사용하고 있는 믿을 수 있는 돼지구이전문점이다. 사용되는 흑돼지 자체가 일반적인 돼지고기와 식감과 맛의 차이가 많이 나며, 껍데기가 붙어 있는",POINT (129.00595 35.21074)
949,북경의자전거,북구,35.230934,129.00957,북경의 자전거,북경의 자전거,-,부산광역시 북구 용당로5번길 14,-,-,am 11:30 ~ pm 22:00,"짜장면, 탕수육",https://www.visitbusan.net/uploadImgs/files/cntnts/20200820091146813_ttiel,https://www.visitbusan.net/uploadImgs/files/cntnts/20200820091146813_thumbL,b'ebb3b8eab2a9eca081ec9db820eca491eab5aded928dec9d9820ec9db8ed858ceba6acec96b4eab08020ed8ab9ec8389ec9e88eb8a9420ec9db420eca491ec8b9deb8bb9ec9d8020eca491eab5adec9db820ec8990ed9484eb93a4ec9db420ec9a94eba6aced9598eab3a020ec9e88eb8a9420eab283ec9cbceba19c20ec9ca0ebaa85ed9598eb8ba42e20ec82acec9aa9eb9098eb8a9420eba9b4ec9d8020eca084ed86b5ebb0a9ec8b9dec9db820ec8898ed8380eba19c20eba78ceb93a4eab3a02c20eb8ba4ec9691ed9598eab3a020eba78eec9d8020eca285eba598ec9d9820ec9a94eba6aceb93a4ec9d8420eba78ceb939ceb8a9420eb8ba8eab3',POINT (129.00957 35.230934)
953,식당 3선(덕천점),북구,35.21927,129.00708,식당 3선(덕천점),식당 3선(덕천점),-,부산 북구 금곡대로 112,-,http://www.3sun.kr,am 11:00 ~ pm 22:00,"양념돼지갈비(330g), 고추장돼지갈비(330g)",https://www.visitbusan.net/uploadImgs/files/cntnts/20200819154140644_ttiel,https://www.visitbusan.net/uploadImgs/files/cntnts/20200819154140644_thumbL,"숯불구이, 파삼겹구이, 밀면 등을 맛볼 수 있는 식당인 이곳은 나이와 취향에 관계없이 즐길 수있는 대중적인 맛이 특징으로, 넓은 공간을 가지고 있어 가족외식장소로 인기 있다. 메인요리인",POINT (129.00708 35.21927)
958,함경면옥,북구,35.21178,129.00423,함경면옥,함경면옥,-,부산 북구 금곡대로 21,-,-,am 11:00 ~ pm 21:20,"물냉면, 회비빔면",https://www.visitbusan.net/uploadImgs/files/cntnts/20200820091029413_ttiel,https://www.visitbusan.net/uploadImgs/files/cntnts/20200820091029413_thumbL,b'3232eb8584ec9d9820eca084ed86b5ec9d8420eab080eca780eab3a020ec9e88eb8a9420ed95a8ed9da5eb8389eba9b420eca084ebacb8eca090ec9cbceba19c2c20eba994eb89b4ec979020eb93a4ec96b4eab080eb8a9420ebaaa8eb93a020ec9eaceba38ceb93a4ec9d8420eca781eca09120eba78ceb93a0eb8ba42e20eab3a0eab5aceba78820eca084ebb68420ed8ab9ec9ca0ec9d9820ed8384eba0a5eab3bc20ecab84eab983ed95a8ec9d8420eab080eca78420ed95a8ed9da5ec8b9d20eb8389eba9b420ec82aceba6aceab08020ed8ab9eca795ec9db4eba9b02c20eca784ed959c20ec9ca1ec8898eab08020eba79bec9e88eb8a9420ebac',POINT (129.00423 35.21178)
960,디에이블 송도점,서구,35.076706,129.01715,디에이블,디에이블,-,부산 서구 충무대로 47 3층,-,-,am 11:00 ~ pm 22:00,"디에이블 파스타, 디에이블 피자",https://www.visitbusan.net/uploadImgs/files/cntnts/20200819132345743_ttiel,https://www.visitbusan.net/uploadImgs/files/cntnts/20200819132345743_thumbL,"유명한 양식레스토랑인 디에이블의 분점으로, 가게 전체에서 보이는 멋진 바다풍경 속에서 특별한 식사를 할 수 있는 곳이다. 시그니처 메뉴인 피자는 페스츄리 도우를 사용해 촉촉한 것이 특",POINT (129.01715 35.076706)
961,몽실종가돼지국밥,서구,35.10016,129.01721,몽실종가돼지국밥,몽실종가돼지국밥,-,부산 서구 까치고개로 197번길 3,-,-,am 09:00 ~ pm 21:00,"돼지국밥, 수육백반",https://www.visitbusan.net/uploadImgs/files/cntnts/20200819132813484_ttiel,https://www.visitbusan.net/uploadImgs/files/cntnts/20200819132813484_thumbL,b'eab090ecb29cebacb8ed9994eba788ec9d8420eab7bcecb298ec979020ec9e88eb8a9420eb8fbceca780eab5adebb0a5eca084ebacb8eca090ec9cbceba19c2c20ecb2adeab2b0ed959c20ec8ba4eb82b4ec998020ecb99ceca088ed959c20eca090ec9b90eb93a4ec9db420ec9db8ec8381eca081ec9db420eb8ba42e20ec82aceab3a8ebbc88eba5bc203234ec8b9ceab08420ec9db4ec838120ed91b920eab3a0ec958420eba78ceb93a020eab5adebacbcec9db420ec9ca0ebaa85ed9598eab3a02c20eab5adebb0a5ec979020eb93a4ec96b4eab080eb8a9420eab3a0eab8b0ec9691eab3bc20eab3a0eab8b020eca285eba598eba5bc20ec84a0ed',POINT (129.01721 35.10016)
963,식당 토성동,서구,35.097954,129.02257,식당 토성동,식당 토성동,-,부산 서구 구덕로 124번길 27,-,-,am 10:30 ~ pm 20:00,"한입 스테이크 덮밥, 돈카츠정식",https://www.visitbusan.net/uploadImgs/files/cntnts/20200819133843312_ttiel,https://www.visitbusan.net/uploadImgs/files/cntnts/20200819133843312_thumbL,b'ec9d98ec99b8ec9d9820ec9ea5ec868cec979020ec9e90eba6aced9598eab3a020ec9e88eb8a9420ec9584eb8bb4ed9598eab3a020ec9888ec819c20ec9db8ed858ceba6acec96b4ec9d9820eb8daeebb0a5eca084ebacb8eca090ec9cbceba19c2c20eab084eb8ba8ed959c20ec9d8cec8b9d2c20eab994eb8194ed959c20eba79b2c20ecb99ceca088ed959c20ec849cebb984ec8aa4eba19c20ec9ca0ebaa85ed959c20eab3b3ec9db4eb8ba42e20ebaaa8eb93a020ec9d8cec8b9dec9db420ec9db8eab8b0eba994eb89b4ec9db4eab8b420ed9598eca780eba78c2c20ec8690eca788eab3bc20ec8899ec84b1ec9d8420eab1b0ecb39020ebb680eb',POINT (129.02257 35.097954)
964,청죽,서구,35.11293,129.01305,청죽,청죽,-,부산 서구 망양로 23,-,-,am 11:30 ~ pm 22:00,"점심코스, 저녁코스",https://www.visitbusan.net/uploadImgs/files/cntnts/20200819134238418_ttiel,https://www.visitbusan.net/uploadImgs/files/cntnts/20200819134238418_thumbL,"입구까지 이어진 근사한 정원이 멋진 일식코스요리전문점으로, 이 지역에서는 상견례 등격조 있는 모임의 장소로 많이 이용하는 곳이다. 비교적 비싼 가격의 식당이지만, 맛과 서비스 모두 충",POINT (129.01305 35.11293)
965,편의방,서구,35.11915,129.01625,편의방,편의방,-,서구 대신공원로 13-5,-,-,am 10:30 ~ pm 20:30,"찐만두, 군만두, 탕수육, 새우볶음밥",https://www.visitbusan.net/uploadImgs/files/cntnts/20200819134644126_ttiel,https://www.visitbusan.net/uploadImgs/files/cntnts/20200819134644126_thumbL,"빨간 간판이 눈에 띄는 이 곳은 3대째 이어오는 중국만두전문점으로, 하루에 40인분 한정 에, 30분전에 미리 전화로 주문해야 한다는 삼선만두가 유명한 곳이다. 주문과 동시에 만드는 삼선만두",POINT (129.01625 35.11915)
966,동원장수촌,사하구,35.10194,128.97113,동원장수촌,동원장수촌,-,부산 사하구 동매로 117,-,-,am 11:30 ~ pm 21:30,"한방 녹두 백숙, 능이백숙",https://www.visitbusan.net/uploadImgs/files/cntnts/20200819172146946_ttiel,https://www.visitbusan.net/uploadImgs/files/cntnts/20200819172146946_thumbL,b'eb8f84ec9e90eab8b020ec9ea5ec9db8ec9db420ebb99aec96b4eb82b820eb91a5eab7b8eb9fb020eb9a9debb0b0eab8b0ec979020ec9d8cec8b9dec9d8420eb8bb4ec9584eb82b4eb8a9420ebb3b4ec9691ec9d8cec8b9deca084ebacb8eca090ec9cbceba19c2c20ebaaa8ec9e8420eb93b1ec9d9820ec9ea5ec868ceba19ceb8f8420ec9db8eab8b020ec9e88eb8a9420eab3b3ec9db4eab8b0eb8f8420ed9598eb8ba42e20ed959cebb0a9eb85b9eb9190ebb0b1ec8899ec9db420ed8ab9ed9e8820ec9db8eab8b0ec9e88eb8a9420eba994eb89b4eba19c20ed99a9eab8b020eab5aceab8b0ec9e9020eab090ecb48820eb93b1ec9d9820ed959cec',POINT (128.97113 35.10194)
969,포항가자미물회,사상구,35.169525,128.98228,포항가자미물회,포항가자미물회,-,사상로 275-1,-,-,오픈 12:00 / 마감 21:00,"여름물회, 겨울물회",https://www.visitbusan.net/uploadImgs/files/cntnts/20200819143114772_ttiel,https://www.visitbusan.net/uploadImgs/files/cntnts/20200819143114772_thumbL,b'ec868cebb095ed959c20eb8a90eb828cec9d9820eb8f99eb84a4ec8b9deb8bb9ec9cbceba19c2c20ec8b9cec9b90ed959c20ebacbced9a8cec979020eab5adec8898eba5bc20eba790ec9584eba8b9eb8a9420eab283ec9cbceba19c20ec9ca0ebaa85ed959c20ebacbced9a8ceca084ebacb8eca090ec9db4eb8ba42e20eab096ec9d8020ec9691eb8590ec979020ebacb4ecb390eca78420ed9a8cec998020ebacbced9a8c20ec9ca1ec8898eab08020eb94b0eba19c20eca09ceab3b5eb9098eba9b02c20ec97aceba684ec9790eb8a9420ec8ba0ec84a0ed959c20ed86a0eba788ed86a0ec979020ec8bb8eba8b9eab3a020eab2a8ec9ab8ec9790eb',POINT (128.98228 35.169525)
974,괘법쭈꾸미,사상구,35.163906,128.98459,괘법쭈꾸미,괘법쭈꾸미,-,광장로81번길 33,-,-,오픈 11:30 / 마감 00:30,웰빙쭈꾸미,https://www.visitbusan.net/uploadImgs/files/cntnts/20200819161305335_ttiel,https://www.visitbusan.net/uploadImgs/files/cntnts/20200819161305335_thumbL,b'32303037eb858420eab498ebb295eb8f99ec9790ec849c20ec8b9cec9e91ed959c20ec9db420eca780ec97adec9d9820eb8c80ed919ceca081ec9db820ecad88eabeb8ebafb8ec9a94eba6aceca084ebacb8eca090ec9cbceba19c2c20eca781eca09120eba78ceb93a020ebb984ebb295ec868cec8aa4eba5bc20ec82acec9aa9ed9598ec97ac20eba7a4ec9ab0eba9b4ec849ceb8f842c20ec9e90eabeb820eba8b9eab28c20eb9098eb8a9420eba79bec9db420ed8ab9eca795ec9db4eb8ba42e20eb8c80ed919ceba994eb89b4eb8a9420ec9bb0ebb999ecad88eabeb8ebafb8ec9db4eba9b02c20eb8ba8ec9dbceba994eb89b4eba19c20eabeb8ec',POINT (128.98459 35.163906)
1065,삼진어묵,영도구,35.092953,129.04279,삼진어묵,삼진어묵 영도본점,부산광역시 품질인증 문화체험장,부산시 영도구 태종로99번길 36 삼진어묵,-,http://www.samjinstory.com/,월~일 / 9:00~19:00,-,https://www.visitbusan.net/uploadImgs/files/cntnts/20210415134915004_ttiel,https://www.visitbusan.net/uploadImgs/files/cntnts/20210415134915004_thumbL,삼진어묵은 1953년부터 3대 째 가억을 잇고있는 대한민국 대표 어묵 브랜드입니다.,POINT (129.04279 35.092953)
1092,광명집,남구,35.125664,129.10095,광명집,광명집,-,남구 신선로 458,-,https://blog.naver.com/dsd660/,am 11:30 ~ pm 22:00,"아구찜, 대구찜, 아구탕",https://www.visitbusan.net/uploadImgs/files/cntnts/20210903144841845_ttiel,https://www.visitbusan.net/uploadImgs/files/cntnts/20210903144841845_thumbL,b'3230eb8584ec9db420eb8498eab28c20eb8c80eba5bc20ec9db4ec96b420ec9ab4ec988120eca491ec9db820ec9584eab5acecb09c2feb8c80eab5acebbd88ecb09c20eca084ebacb8eca090ec9cbceba19c20ec8ba0ec84a0ed9598eab3a020ed9288eca78820eca28bec9d8020ec9eaceba38ceb93a4eba19c2020ecb09cec9a94eba6aceba5bc20eba78ceb93a4eab3a020ec9e88eb8ba42e20eb8c80eab5acebbd88ecb09cec9d8020ec9691ed8c8ceab08020eab080eb939d20ec98aceba0a420eca78420eb8f85ed8ab9ed959c20eca1b0eba6acebb295ec9db420ec82acec9aa9eb9098eba9b02c2020eb919020eab080eca78020ecb09c20ec9a',POINT (129.10095 35.125664)
1094,명지첫집,강서구,35.095818,128.92444,명지첫집,명지첫집,-,강서구 명지국제6로232번길 18,-,-,11:30a.m. ~ 22:00p.m.15:00~17:00 (break time),"쭈꾸미보쌈, 보쌈수육, 보쌈족발",https://www.visitbusan.net/uploadImgs/files/cntnts/20210913092353076_ttiel,https://www.visitbusan.net/uploadImgs/files/cntnts/20210913092353076_thumbL,명지를 상징하는 식재료인 소금과 대파를 활용한 젓갈과 대파김치를 보쌈요리에 곁들였다. 기분이 좋아지는 푸짐한 한상차림의 보쌈정식과 쭈꾸미보쌈이 대표메뉴이다.,POINT (128.92444 35.095818)
1098,드마히니 더블유스퀘어점,남구,35.13426,129.11124,드마히니 더블유스퀘어점,드마히니 더블유스퀘어점,-,남구 분포로 145 (W스퀘어 2동),-,-,오픈 11:30 / 마감 22:00,"화덕스테이크 100g 20,000원 / 랍스타스튜 38,000원",https://www.visitbusan.net/uploadImgs/files/cntnts/20210913095514659_ttiel,https://www.visitbusan.net/uploadImgs/files/cntnts/20210913095514659_thumbL,b'ebb680ec82b0ec9d9820ec9ca0ebaa8520ebb2a0ec9db4ecbba4eba6ac20ec98b5ec8aa4284f505329ec9790ec849c20eba78ceb93a020eb919020ebb288eca7b820ed9484eba08cecb99820eba088ec8aa4ed86a0eb9e91ec9cbceba19c20ed8c8ceba6ac20ed9884eca78020ecb9b4ed8e98ec9d9820ec9e90ec9ca0eba19cec9ab420ebb684ec9c84eab8b0eba5bc20ec82b4eba6b020eab3b5eab084ec9db420ed8ab9eca795ec9db4eba9b02c20ec868cebb095ed9598eab3a020eca095ec84b120eab080eb939ded959c20ed9484eb9e91ec8aa420ec9a94eba6aceb93a4eab3bc2020ec8aa4ed8e98ec859ced8bb020eb93b1eab889ec9d9820eb',POINT (129.11124 35.13426)
1099,명품외식 육면정,남구,35.148415,129.09482,명품외식 육면정,명품외식 육면정,-,남구 황령대로 329,-,-,am 11:30 ~ pm 22:00,"생진갈비살150g, 양념갈비300g, 갈비살양념구이250g",https://www.visitbusan.net/uploadImgs/files/cntnts/20210913100010495_ttiel,https://www.visitbusan.net/uploadImgs/files/cntnts/20210913100010495_thumbL,b'eb8ba4ec9691ed959c20ec97b0ed9a8cec849deab3bc20ec96b4eba6b0ec9db420ec8b9cec84a42c20eb8493ec9d8020eca3bcecb0a8ec9ea5ec9d8420eab080eca780eab3a020ec9e88eb8a9420ed81b020eab79cebaaa8ec9d9820eab5acec9db4eca084ebacb8ec8b9deb8bb9ec9cbceba19c20eca78820eca28bec9d8020ec868ceab3a0eab8b0ec998020ec8ba0ec84a0ed959c20ec95bcecb184eb93a4ec9d8420eca09ceab3b5ed9598eab3a02c20ecb59ceab3a0eb93b1eab889ec9d9820ec9c84ec839dec8898eca480ec9d8420ec9db8eca69d20ebb09bec9598eb8ba42e20eb8ba8ecb2b4ebaaa8ec9e84ec9db4eb829820eab080eca1b1ec',POINT (129.09482 35.148415)
1100,호포갈비 문현점,남구,35.13401,129.06631,호포갈비 문현점,호포갈비 문현점,-,남구 우암로 359,-,https://www.okgoodfood.com/,09:00 - 21:30 1층 매장11:30 - 21:30 2층 식당,"고기(시세) 1층 고기 구입 후 상차림 1인 6,000원 / 호포갈비탕 14,000원",https://www.visitbusan.net/uploadImgs/files/cntnts/20210913101952443_ttiel,https://www.visitbusan.net/uploadImgs/files/cntnts/20210913101952443_thumbL,b'31ecb8b5ec9d9820eca095ec9ca1ed8c90eba7a4eca090ec9790ec849c20eab5acec9e85ed959c20eab3a0eab8b0eba5bc2032ecb8b5ec9d9820ec8b9deb8bb9ec9790ec849c20eab5acec9b8ceba8b9eb8a9420ebb0a9ec8b9dec9d9820ec8b9deb8bb9ec9cbceba19c2c20eab994eb8194ed959c20ec9db8ed858ceba6acec96b4ec998020ec8898eca48020eb8692ec9d8020ecb2adeab2b0ec8381ed839ceba5bc20ec9e90eb9e91ed959ceb8ba42e20ed8c90eba7a4eca090ec9790ec849ceb8a9420eca78820eca28bec9d8020ec9ca1eba598eba5bc20ecb7a8eab889ed9598eab3a020ec9e88ec9cbceba9b02c20eb8ba4ec9691ed959c20ebb6',POINT (129.06631 35.13401)
1104,평산옥,동구,35.114292,129.0371,평산옥,평산옥,-,동구 초량중로 26,-,-,am 10:00 ~ pm 21:00,"수육, 국수, 열무국수",https://www.visitbusan.net/uploadImgs/files/cntnts/20210913104329974_ttiel,https://www.visitbusan.net/uploadImgs/files/cntnts/20210913104329974_thumbL,4대에 걸쳐 운영하고 있는 100년 전통의 돼지수육전문식당으로 돼지수육과 수육 삶은 육수에 말은 국수가 유명하다. 국내산 신선한 고기로 만드는 육수는 맑은 국물 색과 담백하지만 진한 맛을,POINT (129.0371 35.114292)
1106,공감식당,부산진구,35.16551,129.03838,공감식당,공감식당,-,부산진구 동평로 81,-,-,am 11:30 ~ pm 24:00,"선별숙성삼겹살130g, 선별숙성목살130g, 구워먹는치즈",https://www.visitbusan.net/uploadImgs/files/cntnts/20210913110103549_ttiel,https://www.visitbusan.net/uploadImgs/files/cntnts/20210913110103549_thumbL,"보리를 사료로 키운 돼지를 전문가가 직접 선별, 숙성하여 전문교육을 받은 직원들이 직접 구워주는 구이전문점으로, 삼겹살과 구워먹는 치즈가 이 곳의 인기메뉴이다. 다양한 사이드 메뉴도",POINT (129.03838 35.16551)
1107,다옴 (서면 삼정타워점),부산진구,35.152874,129.05957,다옴 (서면 삼정타워점),다옴 (서면 삼정타워점),-,"부산진구 중앙대로 672, 삼정타워 5층",-,https://www.instagram.com/daom2016/,am 11:00 ~ pm 22:00,"차돌박이비빔국수, 칼국수, 비빔밥",https://www.visitbusan.net/uploadImgs/files/cntnts/20210913110833421_ttiel,https://www.visitbusan.net/uploadImgs/files/cntnts/20210913110833421_thumbL,b'eab080ebb38deab28c20eca690eab8b820ec889820ec9e88eb8a9420ed959cec8b9deba994eb89b4eba5bc20ec84a0ebb3b4ec9db4eb8a9420ec8b9deb8bb9ec9cbceba19c20eb82a8ed95b4ec9588eba9b8ecb998eba19c20eba78ceb939ceb8a9420ec9ca1ec8898ec998020eab3bcec9dbcec9d8420ecb2a8eab080ed9598ec97ac20eba78ceb93a020ec8899ec84b1ec9691eb859020eb93b120ec9d8cec8b9deca480ebb984ec979020eba78eec9d8020eca095ec84b1ec9d8420eb93a4ec9db8eb8ba42e20ecb0a8eb8f8cebb095ec9db4eab08020ed86a0ed959120eb909c20ebb984ebb994eab5adec8898ec998020ebb984ebb994ebb0a5ec9d',POINT (129.05957 35.152874)
1108,당감밀면,부산진구,35.162247,129.03975,당감밀면,당감밀면,-,부산진구 당감로 5 삼익아파트상가 18동 106호,-,-,am 11:00 ~ pm 20:00,"밀면, 비빔밀면, 손만두4개/8개, 손칼국수",https://www.visitbusan.net/uploadImgs/files/cntnts/20210913111405621_ttiel,https://www.visitbusan.net/uploadImgs/files/cntnts/20210913111405621_thumbL,b'eca780ec97adebafbceb93a4ec9db420ecb694ecb29ced9598eb8a9420ebb080eba9b4eca084ebacb8eca090ec9cbceba19c20ec9ca1ec8898ec998020eba9b4c2b7ec9691eb8590ec979020ec9db4eba5b4eab8b0eab98ceca78020ebaaa8eb93a020ec9eaceba38ceba5bc20eca3bcebb0a9ec9ea5ec9d9820eb8f85ec9e90eca081ec9db820ebb984ebb295ec9cbceba19c20eba78ceb93a4ec96b420ed8ab9eca795eca081ec9db820ebb080eba9b4ec9d9820eba79bec9d8420ec9e90eb9e91ed959ceb8ba42e20eca781eca09120eba78ceb939ceb8a9420ec8690eba78ceb9190eb8f8420eb8bb4ebb0b1ed959c20eba79bec9cbceba19c20ec9d',POINT (129.03975 35.162247)
1109,더브릭하우스,부산진구,35.15917,129.0585,더브릭하우스,더브릭하우스,-,"부산진구 부전로152번길 70, 1층",-,https://www.instagram.com/thebrick_italian/,pm 12:00 ~ pm 22:0015:00~17:30 (breaktime),"마르게리타피자, 풍기피자, 포르마지파스타, 라구파스타",https://www.visitbusan.net/uploadImgs/files/cntnts/20210913111907192_ttiel,https://www.visitbusan.net/uploadImgs/files/cntnts/20210913111907192_thumbL,b'ebb288ec9ea1ed959c20ebb288ed9994eab08020ec82acec9db4ec979020ec9888ec819c20ebb2bdeb8f8ceca791ec9db420ebb3b4ec9db8eb8ba42e20ec9db4eab3b3ec9d8020ed9994eb8d95ed94bcec9e90eab08020eba79bec9e88eab8b0eba19c20ec9ca0ebaa85ed959c20ec9db4ed8388eba6acec958820eba088ec8aa4ed86a0eb9e91ec9cbceba19c2c20ed81b4eb9e98ec8b9ded959c20eab3b5eab084eab3bc20ed81b4eb9e98ec8b9ded959c20ec9d8cec958520eab7b8eba6aceab3a020ec9db4ed8388eba6acec958820ec9d8cec8b9deab3bc20ec96b4ec9ab8eba6aceb8a9420eb8ba4ec9691ed959c20ec9980ec9db8ec9db420eca4',POINT (129.0585 35.15917)
1110,버거샵,부산진구,35.15856,129.06306,버거샵,버거샵,-,"부산진구 동천로108번길 11, 1층",-,https://www.instagram.com/burgershopbusan/,pm 11:00 ~ pm 20:30,"치즈버거, 클래식버거, 베이컨치즈, 멕시칸버거, 감자튀김",https://www.visitbusan.net/uploadImgs/files/cntnts/20210913112340644_ttiel,https://www.visitbusan.net/uploadImgs/files/cntnts/20210913112340644_thumbL,"직접손질하는 1등급 한우 패티와 매일 아침 구운 브리오슈 번으로 만드는 수제버거전문점으로, 외국인 손님들도 많이 찾는 곳이다. 독특한 인테리어를 즐기며 다양한 소품들도 구입하고 볼 수",POINT (129.06306 35.15856)
1111,소수인,부산진구,35.156704,129.05385,소수인,소수인,-,부산진구 가야대로750번길 17,-,-,pm 17:00 ~ am 01:00,"시메사바이소베마키, 모찌리도후, 카키올리브",https://www.visitbusan.net/uploadImgs/files/cntnts/20210913112639309_ttiel,https://www.visitbusan.net/uploadImgs/files/cntnts/20210913112639309_thumbL,b'ec9dbcec8b9dec9d8420ebaaa8ed8bb0ebb88ceba19c20ed959c20ec8388eba19cec9ab420ec8aa4ed8380ec9dbcec9d9820ec9a94eba6aceba5bc20eba78ceb93a4eab3a020ec9e88eb8a9420ec9dbcebb3b8ec8b9deca3bceca090ec9cbceba19c20ec9881ec9785ec9d8420ec8b9cec9e91ed959ceca78020ec96bceba78820eb9098eca78020ec958aec958420ed95adec838120ec82aceb9e8ceb93a4ec9db420eab080eb939ded959c20eab3b3ec9db420eb9098ec9788eb8ba42e20eab09cec84b1eab095ed959c20ec9a94eba6aceb93a4ec9d8020ec88a0ec9588eca3bceba19ceb8f8420ec8b9dec82aceba19ceb8f8420ec9e9820ec96b4ec',POINT (129.05385 35.156704)
1117,양평칼국수,사하구,35.048454,128.967,양평칼국수,양평칼국수,-,사하구 다대로 680-1,-,-,am 11:00 ~ pm 20:30(break time 16:00~15:00),"양평칼국수, 비빔칼국수, 멸치칼국수, 고기만두",https://www.visitbusan.net/uploadImgs/files/cntnts/20210913114940489_ttiel,https://www.visitbusan.net/uploadImgs/files/cntnts/20210913114940489_thumbL,b'eb8ba4eb8c80ed8fac20ed95b4ec8898ec9a95ec9ea520ec9db8eab7bcec9d9820ec8b9deb8bb9ec9cbceba19c203230eb858420eab2bdeba0a5ec9d9820ecb9bceab5adec889820ec9ea5ec9db8ec9db820eca3bcec9db8ec9db420eca781eca09120ebb098eca3bded959c20ec8899ec84b1eba9b4ec979020eab5adec82b020ebb0b0ecb694eba19c20eba7a4ec9dbc20eba7a4ec9dbc20eb8bb4eb8a9420eab980ecb998eab08020eba7a4eba0a5ec9d8420eb8d94ed959ceb8ba42e20ec97aceba684ec9790eba78c20eba79b20ebb3bc20ec889820ec9e88eb8a9420eb8389ecb9bceab5adec88982c20eb8389ecbda9ecb9bceab5adec889820eb',POINT (128.967 35.048454)
1118,영진돼지국밥,사하구,35.09664,128.95784,영진돼지국밥,영진돼지국밥,-,사하구 하신번영로157번길 39,-,-,am 09:30 ~ pm 21:30(break time 16:00~17:00),"수육백반, 돼지국밥, 순대국밥,  내장국밥",https://www.visitbusan.net/uploadImgs/files/cntnts/20210913131201409_ttiel,https://www.visitbusan.net/uploadImgs/files/cntnts/20210913131201409_thumbL,"유명한 돼지국밥 전문점 중 한 곳으로, 항상 많은 사람들이 찾아오는 곳이다. 돼지 특유의 냄새를 제거하여 깔끔하고 담백한 맛을 자랑하며 수육과 두부, 볶음김치가  함께 나오는 수육백반이",POINT (128.95784 35.09664)
1121,신흥반점,서구,35.09595,129.02463,신흥반점,신흥반점,-,서구 충무대로 284-1,-,-,am 11:00 ~ pm 21:30,"짬뽕, 자장면, 깐풍기, 삼선볶음밥",https://www.visitbusan.net/uploadImgs/files/cntnts/20210913133410983_ttiel,https://www.visitbusan.net/uploadImgs/files/cntnts/20210913133410983_thumbL,"2대째 운영 중인 신흥반점은 서구에서 55년 동안 화교 가족들이 운영해오고 있는 곳으로, 중국 현지의 식당 같은 분위기의 가게에서 다양한 중국요리를 맛 볼 수 있다. 짬뽕국물과 깐풍기가 이",POINT (129.02463 35.09595)
1132,동원 숯불 갈비,연제구,35.188595,129.09715,동원 숯불 갈비,동원 숯불 갈비,-,연제구 과정로276번길 9,-,-,am 12:00 ~ pm 22:00,돼지갈비230g,https://www.visitbusan.net/uploadImgs/files/cntnts/20210913141552746_ttiel,https://www.visitbusan.net/uploadImgs/files/cntnts/20210913141552746_thumbL,b'ed959ceca081ed959c20eab3a8ebaaa9eab8b8ec979020ec88a8eab2a8eca0b820ec9e88eb8a9420ec9db420eb8fbceca780eab088ebb984eca084ebacb8eca090ec9d80203338eb8584eab08420ec88afebb688eb8fbceca780eab088ebb98420ed959c20eba994eb89b4eba19c20ec9db420ec9ea5ec868ceba5bc20eca780ecbc9cec98a820ec8b9deb8bb9ec9db4eb8ba42e20ec89bdeab28c20ecb0beeab8b020ed9e98eb93a020ec9c84ecb998ec979020ec9e88eca780eba78c20ecb99ceab7bced9598eab3a020eabeb8eca480ed959c20eba79bec9cbceba19c20eba78eec9d8020eb8ba8eab3a8eab3a0eab09deb93a4ec9db420ecb0beec95',POINT (129.09715 35.188595)
1133,도날드 즉석 떡볶이,영도구,35.085815,129.04295,도날드 즉석 떡볶이,도날드 즉석 떡볶이,-,영도구 꿈나무길 267,-,-,am 11:30 ~ pm 20:00,"뻥크림, 즉석떡볶이 2인분/3인분/4인분/5인분",https://www.visitbusan.net/uploadImgs/files/cntnts/20210913142012236_ttiel,https://www.visitbusan.net/uploadImgs/files/cntnts/20210913142012236_thumbL,b'eca780ec97adebafbceb93a4ec9790eab28c20ecb694ec96b5ec9d9820ec9ea5ec868cec9db820ec9db420eab3b3ec9d80203335eb8584eab08420ec9ab4ec9881ed95b4ec98a820ec9ca0ebaa85ed959c20eca689ec849deb96a1ebb3b6ec9db420eca084ebacb8eca090ec9cbceba19c20ed95b4ebacbcec9ca1ec8898ec998020eab3a0ecb694ec9ea520ec868cec8aa4eba5bc20ec82acec9aa9ed9598ec97ac20eb8f85ed8ab9ed959c20eba79bec9d8420ec9e90eb9e91ed959ceb8ba42e20ed9b84ec8b9dec9cbceba19c20ed8c90eba7a4ed9598eb8a9420ebbba5ed81aceba6bcec9d8420eba8b9eab8b020ec9c84ed95b420ecb0beec9584ec',POINT (129.04295 35.085815)
1135,영도우,영도구,35.08781,129.06128,영도우,영도우,-,영도구 조내기로5번길 2,-,https://www.instagram.com/sinkipizza/,am 11:30 ~ pm 22:00,"영도우피자, 불고기피자, 청학동파스타, 안심스테이크",https://www.visitbusan.net/uploadImgs/files/cntnts/20210913152113856_ttiel,https://www.visitbusan.net/uploadImgs/files/cntnts/20210913152113856_thumbL,부산항이 한눈에 들어오는 장소에 위치한 피자전문점으로 자체개발한 도우로 만든 테두리가 없는 사각형의 디트로이트식 피자가 대표메뉴이다. 임실치즈를 아낌없이 사용하여 풍부한 치즈의,POINT (129.06128 35.08781)
1136,함흥보쌈,영도구,35.08845,129.04108,함흥보쌈,함흥보쌈,-,영도구 남항로 42,-,-,am 11:00 ~ pm 21:00,"모둠보쌈 소/중/대, 함흥냉면, 평양냉면",https://www.visitbusan.net/uploadImgs/files/cntnts/20210913152733413_ttiel,https://www.visitbusan.net/uploadImgs/files/cntnts/20210913152733413_thumbL,냉면전문점으로 시작하여 50여년을 운영 중인 보쌈전문점으로 싱싱한 고기를 사용하고 부드러운 맛으로 유명하다. 오랜 전통을 자랑하는 냉면도 인기메뉴이며 어떤 메뉴를 주문하든 만족스러,POINT (129.04108 35.08845)
1137,원산면옥,중구,35.098976,129.03105,원산면옥,원산면옥,-,중구 광복로 56-8,-,http://wonsannoodle.fordining.kr/,11:00a.m. ~ 21:30p.m.,"평양냉면, 함흥냉면, 왕만두, 수육",https://www.visitbusan.net/uploadImgs/files/cntnts/20210913153317155_ttiel,https://www.visitbusan.net/uploadImgs/files/cntnts/20210913153317155_thumbL,b'3630ec97aceb8584ec9d9820eca084ed86b5ec9d8420eab080eca78420eb8389eba9b4eca084ebacb8eca090ec9cbceba19c2033eb8c80eca7b820ec9ab4ec9881ed9598eab3a020ec9e88eb8a9420ebacb4ecb29920ec9ca0ebaa85ed959c20eab3b3ec9db4eb8ba42e20ed959cec9ab0ec998020eab5adeb82b4ec82b020ec839d20eb8fbceca780eab3a0eab8b02c20ec839deb8badec9d8420ec82acec9aa9ed9598eab3a0203130ec97ac20eab080eca78020ec9eaceba38ceab08020eb93a4ec96b4eab08420ec9ca1ec8898eba19c20eba78ceb93a020eb8389eba9b4ec9d802020ebb380ed9598eca78020ec958aeb8a9420eba79bec9d8420ec',POINT (129.03105 35.098976)
1138,개미집신도시점,해운대구,35.167637,129.17154,개미집신도시점,개미집신도시점,-,해운대구 좌동로 10번길 51-5,-,-,10:00a.m. ~ 22:00p.m.,"낙지볶음, 곱창전골",https://www.visitbusan.net/uploadImgs/files/cntnts/20210913153737388_ttiel,https://www.visitbusan.net/uploadImgs/files/cntnts/20210913153737388_thumbL,"부산의 대표적인 낙지요리전문점인 개미집의 분점으로, 본점에 뒤쳐지지 않는 맛을 선보이고 있다. 본점과 같이 낙지볶음, 낙지새우볶음, 낙지곱창볶음 등의 요리들이 모두 인기 있으며, 불고",POINT (129.17154 35.167637)
1219,오리한상,강서구,35.097855,128.92471,오리한상,오리한상,-,"명지국제9로 66, 지봉빌딩 2층",-,-,오픈 11:30 / 마감 22:00,"오리소금구이, 오리양념구이, 오리탕",https://www.visitbusan.net/uploadImgs/files/cntnts/20220510145207922_ttiel,https://www.visitbusan.net/uploadImgs/files/cntnts/20220510145207922_thumbL,b'ecb2adeb91a5ec98a4eba6aceba5bc20ec82acec9aa9ed959c20ec868ceab888eab5acec9db4ec998020eab889ec868d20eb8389eb8f99eb909c20ec98a4eba6aceba5bc20ec9584eca3bc20ec9687eab28c20ec8aaceb9dbcec9db4ec8aa4ed959c20ebb688eab3a0eab8b0eab08020ebaaa8eb919020ec9db8eab8b0ec9e88eb8a9420ec9db4eab3b3ec9d802c20ecbba4eb8ba4eb9e8020ecb0bdec9d8420ed999cec9aa9ed959c20eab994eb8194ed9598eab3a020ec97acec9ca0eba19cec9ab420eab3b5eab084eab3bc20ed95a8eabb9820eab09cebb384eba3b8eb8f8420ec9ab4ec9881ed9598eab3a020ec9e88ec96b420eab080eca1b1ec99',POINT (128.92471 35.097855)
1220,"오,유미당",금정구,35.241432,129.08784,"오,유미당","오,유미당",-,금정로 187,-,-,오픈 11:30 / 마감 21:00,"토마호크 돈카츠, 치즈 돈카츠, 두부 짬뽕 쌀국수",https://www.visitbusan.net/uploadImgs/files/cntnts/20220510151352637_ttiel,https://www.visitbusan.net/uploadImgs/files/cntnts/20220510151352637_thumbL,b'ecb9b4ed8e98ecb298eb9fbc20ec9888ec819c20eab3b5eab084ec979020eb8f88ecb9b4ecb8a0ec998020ec8c80eab5adec8898eb9dbceb8a9420ec9db4ec8389eca081ec9db820eca1b0ed95a9ec9d9820eba994eb89b4eba5bc20eab080eca78420eab3b3ec9cbceba19c2c20ecb298ec9d8c20ebb3b4eba9b420eca1b0eab88820eb8bb9ed99a9ec8aa4eb9facec9ab420ebaaa8ec8ab5ec9d8420eab080eca78420ed86a0eba788ed98b8ed81ac20eb8f88ecb9b4ecb8a0eab08020eab080ec9ea520ec9db8eab8b020ec9e88eb8ba4eab3a020ed959ceb8ba42e20ec8c80eab5adec8898ec9d9820ec8898eca480eb8f8420eb8692ec958420ec97',POINT (129.08784 35.241432)
1221,만포밀면,기장군,35.245934,129.21597,만포밀면,만포밀면,-,기장읍 차성로 322번길 40,-,-,오픈 10:30 / 마감 20:00,"물밀면, 비빔밀면, 찐만두",https://www.visitbusan.net/uploadImgs/files/cntnts/20220510161651267_ttiel,https://www.visitbusan.net/uploadImgs/files/cntnts/20220510161651267_thumbL,b'eba7a4ec9ea5ec979020eb93a4ec96b4ec849ceba9b420eca784ed959c20ec9ca1ec8898eb8384ec8388eab08020eba79bec9d8420eab8b0eb8c80ed9598eab28c20ed9598eb8a9420ec9db4eab3b3ec9d8020eab080ec95bcec8b9d20ebb080eba9b4ec9d8420eba78ceb93a4eab3a020ec9e88eb8a9420eab3b3ec9cbceba19c2c203935eb858420eab080eab28ceba5bc20ec97b020ec9db4ed9b8420eba7a4ec9dbc20eab7b820eb82a020ed8c90eba7a4ed95a020ebb080eba9b4ec9d8420ec8b9cec8b9ded9598eb8a9420eab283ec9cbceba19c20ec8b9cec9e91ed959ceb8ba4eab3a020ed959ceb8ba42e20ebb380ed9598eca78020ec958aeb',POINT (129.21597 35.245934)
1222,맛사랑채,기장군,35.24538,129.2147,맛사랑채,맛사랑채,-,기장읍 읍내로 93-6,-,-,오픈 09:00 / 마감 20:00,"쌈정식, 고등어조림, 닭도리탕",https://www.visitbusan.net/uploadImgs/files/cntnts/20220510170244967_ttiel,https://www.visitbusan.net/uploadImgs/files/cntnts/20220510170244967_thumbL,b'ec839dec84a0eab5acec9db4eab08020ed8faced95a8eb909c203132eab080eca780ec9d9820ebb098ecb0aceab3bc20ed95a8eabb9820eba7a4ec9dbc20eb8ba4eba5b820eab5adec9db420eca09ceab3b5eb9098eb8a9420ec9db4eab3b3ec9d9820eca095ec8b9dec9d8020eca791ebb0a520ebb3b4eb8ba420eb8d9420eca791ebb0a520eab099eb8ba4eb8a9420ed8f89ec9d8420eb93a3eab3a020ec9e88eb8ba42e20ec9db8ec8bac20eab080eb939ded959c20ebb0a5ec8381ec9d8420eba78ceb8298eab8b020ec9c84ed95b420eba8bc20eab3b3ec9790ec849c20ecb0beec9584ec98a4eb8a9420ec8690eb8b98eb93a4eb8f8420eba78eeb',POINT (129.2147 35.24538)
1223,우정까망촌돼지,사하구,35.08081,128.97154,-,우정까망촌돼지,-,장림번영로 53,-,-,오픈 11:00 / 마감 23:00,-,https://www.visitbusan.net/uploadImgs/files/cntnts/20220510173949671_ttiel,https://www.visitbusan.net/uploadImgs/files/cntnts/20220510173949671_thumbL,b'eab5acec9db4eca084ebacb8eca090ec9db820ec9db4eab3b3ec9d802c20ec96b4eba6b020ec8b9ceca08820ec8b9ceab3a8ec9790ec849c20eba8b9eb8d9820eb8fbceca780eab3a0eab8b0ec9d9820eba79bec9d8420ec9eaced9884ed9598eab8b020ec9c84ed95b420ecb2adeca095eca780ec97adec9790ec849c20ed82a4ec9ab420eb8fbceca780eba5bc20eab3b5ec8898ed95b4ec98a8eb8ba4eab3a020ed959ceb8ba42e20ec86a5eb9a9ceabb91ec979020eab5acec9b8ceba8b9eb8a9420eab283ec9db420ed8ab9eca795ec9db8eb8db020eba79beb8f8420eba79bec9db4eca780eba78c2c20eab5acec9b8ceca780eb8a9420ebaaa8ec',POINT (128.97154 35.08081)
1224,유메,사하구,35.105747,128.96916,-,유메,-,낙동대로 456,-,-,오픈 11:30 / 마감 24:00,-,https://www.visitbusan.net/uploadImgs/files/cntnts/20220510175614552_ttiel,https://www.visitbusan.net/uploadImgs/files/cntnts/20220510175614552_thumbL,b'38eca285ec9d9820ed9598ec9db4ebb3bc2c203237eca285ec9d9820ecb2adeca3bcec998020eab5adeb82b4ec82b020eca69deba598eca3bc20eb93b120eb8ba4ec9691ed959c20ec88a0eab3bc20eab7b8ec979020ec96b4ec9ab8eba6aceb8a9420eb8ba4ec9691ed959c20ec9588eca3bceb93a4ec9db420eca480ebb984eb9098ec96b420ec9e88eb8a9420ec9dbcebb3b8ec8b9deca3bceca090ec9db4eca780eba78c2c20eb8f88ecb9b4ecb8a0eca084ebacb8eca090ec9db4eb9dbc20ec958ceab3a020ec9e88eb8a9420ec82aceb9e8ceb93a4eb8f8420ec9e88ec9d8420eba78ced81bc20ec98a4eb8488ec8990ed9484eab08020eca781ec',POINT (128.96916 35.105747)
1225,금랑횟집 광안리 본점,수영구,35.155155,129.131,-,금랑횟집 광안리 본점,-,"광안해변로344번길 17-5, 마린리치건물 6층",-,-,오픈 11:30 / 마감 23:00,-,https://www.visitbusan.net/uploadImgs/files/cntnts/20220510180602206_ttiel,https://www.visitbusan.net/uploadImgs/files/cntnts/20220510180602206_thumbL,수변공원 회센터에 자리한 횟집으로 메인요리인 회와 함께 제공되는 음식들이 다양하고 수준이 높아 회를 즐기지 않는 사람들도 충분히 즐길 만한 곳이다. 광안대교의 전경이 보이는바다풍경,POINT (129.131 35.155155)
1226,난파센,수영구,35.14674,129.11339,-,난파센,-,남천동로108번길 43,-,-,오픈 11:30 / 마감 21:00,-,https://www.visitbusan.net/uploadImgs/files/cntnts/20220511104527053_ttiel,https://www.visitbusan.net/uploadImgs/files/cntnts/20220511104527053_thumbL,b'eca28bec9d8020ec9eaceba38ceba5bc20eca781eca09120ec8690eca788ed9598eab3a020eca781eca09120eba78ceb93a020ed8ab9eca09c20ec868cec8aa4eba5bc20ec82acec9aa9ed95b420ec9db8eab8b020eb8692ec9d8020ed8a80eab980eb8daeebb0a5eca084ebacb8eca090ec9cbceba19c20ebb0a5eab3bc20ec96b4ec9ab8eba6aceb8a9420ed8a80eab980ec9d8420eba78ceb93a4eab8b020ec9c84ed95b420ebacb4ecb29920eba78eec9d8020ec97b0eab5aceba5bc20ed959ceb8ba4eab3a020ed959ceb8ba42e20ebb0a520ec9c84ec979020ec98aceba0a4eca78420eab088ec8389ec9d9820ed8a80eab980ec9db420ed8ab9ec',POINT (129.11339 35.14674)
1227,화국반점,중구,35.10253,129.0342,-,화국반점,-,백산길3,-,-,오픈 11:30 / 마감 21:30,-,https://www.visitbusan.net/uploadImgs/files/cntnts/20220511105704117_ttiel,https://www.visitbusan.net/uploadImgs/files/cntnts/20220511105704117_thumbL,"43년 전통의 중식전문점으로 간짜장이 특히 유명한 이 곳은, 전통적인 방식의 요리로 외국인들이 많이 찾는 곳이기도 하다. 신세계와 범죄와의 전쟁 등 영화촬영지로도 유명하다.",POINT (129.0342 35.10253)
1228,로얄경양식&스테이크 광안점,수영구,35.153294,129.12462,-,로얄경양식&스테이크 광안점,-,"민락수변로 29, 2층 201~203호",-,-,오픈 11:30 / 마감 22:00,-,https://www.visitbusan.net/uploadImgs/files/cntnts/20220511111431528_ttiel,https://www.visitbusan.net/uploadImgs/files/cntnts/20220511111431528_thumbL,"광안리의 바다풍경을 즐기며 식사를 할 수 있는 패밀리레스토랑으로 가격에 비해 높은 수준의 음식과 서비스를 제공하고 있다. 조리하는 모습을 직접 볼 수 있는 오픈주방을 운용하고있으며,",POINT (129.12462 35.153294)
1229,이정태 본참치,중구,35.1054,129.03531,-,이정태 본참치,-,해관로73,-,-,오픈 11:30 / 마감 22:30,-,https://www.visitbusan.net/uploadImgs/files/cntnts/20220511111651566_ttiel,https://www.visitbusan.net/uploadImgs/files/cntnts/20220511111651566_thumbL,"전국의 참치 매니아들이 찾아오는 유명한 참치전문점으로, 조리명인인 오너쉐프가 운영하고 있는 곳이다. 당일재료는 당일소진하고 있으며, 노인들을 위한 행사를 개최하는 등 지역사회에 기",POINT (129.03531 35.1054)
1230,무궁화 식당,수영구,35.14778,129.10925,-,무궁화 식당,-,황령산로8번길 5,-,-,오픈 11:30 / 마감 21:00,-,https://www.visitbusan.net/uploadImgs/files/cntnts/20220511113221248_ttiel,https://www.visitbusan.net/uploadImgs/files/cntnts/20220511113221248_thumbL,b'ed95a0eba8b8eb8b88eca791ec979020eb8680eb9facec98a820eab28320eab099ec9d8020eb8a90eb828cec9d8420eca3bceb8a9420ec9db4eab3b3ec9d8020eca084eab3a8ec9a94eba6aceba19c20ebacb4ecb29920ec9ca0ebaa85ed959c20ec8b9deb8bb9ec9cbceba19c2c20eca781eca09120eba78ceb93a020ecbba4eb8ba4eb9e8020eba78ceb9190eba5bc20ec82acec9aa9ed959c20eba78ceb9190eca084eab3a8ec9db420ed8ab9ed9e8820ec9db8eab8b020ec9e88eb8ba42e20ec8ba0ec84a0ed959c20ec95bcecb184eba5bc20ec82acec9aa9ed9598eb8a9420ec9db4eab3b3ec9d8020ed95adec838120ebb380ed95a8ec9786eb8a',POINT (129.10925 35.14778)
1231,어가초밥,중구,35.097214,129.02882,-,어가초밥,-,자갈치로 41,-,-,오픈 12:00 / 마감 21:30,-,https://www.visitbusan.net/uploadImgs/files/cntnts/20220511113442878_ttiel,https://www.visitbusan.net/uploadImgs/files/cntnts/20220511113442878_thumbL,부산 최대 수산물시장인 자갈치시장과 인접한 일식전문점으로 빠르게 재료를 공수하여 신선한 음식을 제공하고 있다. 대부분의 좌석이 독립된 룸으로 운영되고 있어 편안하게 식사를 즐길 수,POINT (129.02882 35.097214)
1232,배꼽시계,기장군,35.30255,129.24944,배꼽시계,배꼽시계,-,일광면 장곡길 63-14,-,-,오픈 11:30 / 마감 22:00,"황칠유황오리백숙, 능이유황오리백숙, 오리불고기",https://www.visitbusan.net/uploadImgs/files/cntnts/20220511115114884_ttiel,https://www.visitbusan.net/uploadImgs/files/cntnts/20220511115114884_thumbL,약선 요리를 추구하여 수술 후 환자들도 자주 찾을 만큼 건강한 음식을 만드는 오리요리전문점으로 계절재료를 사용해 장아찌를 담고 2년 이상 숙성시킨 김치를 사용한다. 오리백숙은 시간이,POINT (129.24944 35.30255)
1233,배가왕,수영구,35.15554,129.13087,-,배가왕,-,광안해변로 348-1,-,-,오픈 11:00 / 마감 20:20,-,https://www.visitbusan.net/uploadImgs/files/cntnts/20220511115634861_ttiel,https://www.visitbusan.net/uploadImgs/files/cntnts/20220511115634861_thumbL,"매일 2시간씩 육수를 끓이고, 직접 담은 김치를 준비한다. 기본에 충실한 음식을 만들기 위해 노력한다는 칼국수전문점으로, 당근을 갈아 넣어서 밀가루 냄새가 나지 않는 면이 특징이다. 기본",POINT (129.13087 35.15554)
1234,삼정횟집,중구,35.10655,129.03775,-,삼정횟집,-,중앙대로 98번길 13,-,-,오픈 9:00 / 마감 14:00,-,https://www.visitbusan.net/uploadImgs/files/cntnts/20220511115844167_ttiel,https://www.visitbusan.net/uploadImgs/files/cntnts/20220511115844167_thumbL,b'ebacbced9a8ceba19c20ec9ca0ebaa85ed959c20ec9db4eab3b3ec9d802c20eca090ec8bacec8b9ceab084ec979020ec9db420eca780ec97adec979020ec9e88eb8ba4eba9b420eabcad20ecb0beec9584ec95bced9598eb8a9420ec8b9deb8bb920eca49120ed959ceab3b3ec9db4eb8ba42e20eba7a4ec9ab4ed8395ec9db420ed95a8eabb9820eca09ceab3b5eb9098eb8a9420ec9db4eab3b3ec9d9820ec8b9dec82aceba994eb89b4eb8a9420ed8ab9ed9e8820eca781ec9ea5ec9db8eb93a4ec9790eab28c20ec9db8eab8b0eab08020eba78eec9cbceba9b02c20eb8bb9ec9dbc20ed999cec96b4eba78c20ec82acec9aa9ed9598ec97ac20ec8b',POINT (129.03775 35.10655)
1235,변소영 백년밥상,기장군,35.245594,129.2147,변소영 백년밥상,변소영 백년밥상,-,기장읍 읍내로 93-8,-,-,오픈 08:00 / 마감 20:00,"소불백정식, 맛조은순두부, 차돌된장찌개",https://www.visitbusan.net/uploadImgs/files/cntnts/20220511130041847_ttiel,https://www.visitbusan.net/uploadImgs/files/cntnts/20220511130041847_thumbL,b'ec9ea5eba598ebb680ed84b020ebb091ebb098ecb0aceab98ceca78020ebaaa8eb919020eca781eca09120ec9ea5eba78ced9598eab3a020ecb29cec97b0eca1b0ebafb8eba38ceba78c20ec82acec9aa9ed95b420eba79bec9d8420eb82b8eb8ba42e20eca781ec9ea5ec9db8eb93a4ec9d8020ebacbceba1a0ec9db4eab3a02c20ec9e85eba79bec9db420eab98ceb8ba4eba19cec9ab420ec8b9cec9ea5ec8381ec9db8eb93a4eab3bc20ec99b8eab5adec9db8eb93a4eb8f8420ec9e90eca3bc20ecb0beec958420ec9ca0ebaa85ed95b4eca78420ed959cec8b9deca090ec9cbceba19c20ecb2adeab2b0eab480eba6acec9790eb8f8420ebacb4ec',POINT (129.2147 35.245594)
1236,사랑도 횟집,기장군,35.247726,129.21346,사랑도 횟집,사랑도 횟집,-,기장읍 차성로 337-1,-,-,오픈 11:30 / 마감 22:00,"자연산회, 앙장구비빔밥, 물회",https://www.visitbusan.net/uploadImgs/files/cntnts/20220511131104127_ttiel,https://www.visitbusan.net/uploadImgs/files/cntnts/20220511131104127_thumbL,b'eba7a4ec9dbc20eca28bec9d8020ed9a9feab090ec9d8420ec84a0ebb384ed95b4ec849c20eca480ebb984ed9598eab3a02c20eca781eca09120eba78ceb93a020ebb098ecb0aceb93a4eba19c20ec8b9ded8381ec9d8420ecb184ec9ab4eb8ba42e20ec9d8cec8b9dec979020eb8c80ed95b420eca095eca781ed9598eab28c20ec9ab4ec9881ed959ceb8ba4eb8a9420ec9db4eab3b3ec9d8020eb8ba8eab3a8ec9db420eba78eeab8b0eba19c20ec9ca0ebaa85ed959c20ed9a9feca791ec9cbceba19c2c20eab080eab2a9ec9db420eb8ba4ec868c20eb8692ec958420ebb3b4ec9db4eca780eba78c20ec9d8cec8b9dec9db420ecb0a8eba0a4eca7',POINT (129.21346 35.247726)
1237,삼송초밥,중구,35.099655,129.02986,-,삼송초밥,-,광복로55번길 13,-,-,오픈 11:00 / 마감 21:00,-,https://www.visitbusan.net/uploadImgs/files/cntnts/20220511131839264_ttiel,https://www.visitbusan.net/uploadImgs/files/cntnts/20220511131839264_thumbL,b'ebb680ec82b0ec9790ec849c20eab080ec9ea520ec9ca0ebaa85ed959c20ec9dbcec8b9deca084ebacb8eca09020eca49120ed959c20eab3b3ec9cbceba19c203635eb858420ec9db4ec8381ec9d9820ec97adec82aceba5bc20eab080eca780eab3a020ec9e88ec9cbceba9b02c20eb8c80eba5bc20ec9db4ec96b420ec98a4eb8a9420ec8690eb8b98eb93a4ec9db420ec9db4eab3b3ec9d9820ebb380ecb99820ec958aeb8a9420eba79bec9d8420ebb3b4eca69ded9598eab3a020ec9e88eb8ba42e20ed8ab9ed9e8820eab980ecb488ebb0a5ec9cbceba19c20eba78eec9db420ec958ceba0a4eca0b8ec9e88eab8b0eb8f8420ed959c20eab3b3ec',POINT (129.02986 35.099655)
1238,솔리보,기장군,35.26711,129.23145,솔리보,솔리보,-,"일광면 해송4로 21, 201호",-,-,오픈 11:30 / 마감 20:00,"포모도로파스타, 새우로제파스타, 부채살스테이크",https://www.visitbusan.net/uploadImgs/files/cntnts/20220511132220417_ttiel,https://www.visitbusan.net/uploadImgs/files/cntnts/20220511132220417_thumbL,b'ec8aa4ec8ab9ec9790eab28c20eca084ec8898ebb09bec958420eab384ec8ab9c2b7ebb09ceca084ec8b9ced82a820ed86a0eba788ed86a020ec868cec8aa4eab08020ed8ab9eab8b0eb9dbceb8a9420eca08aec9d8020ec98a4eb8488ec8990ed9484eb8a942c20ec8aa4ed858cec9db4ed81acec979020ec93b0eb8a9420eab3a0eab8b0eb8f8420eca781eca09120eca095ec9ca1ed9598ec97ac2038ec8b9ceab08420ec9db4ec8381ec9d9820ec8898ebb984eb939c20eab3bceca095ec9d8420eab1b0ecb39020eba78ceb93a4eab3a020ec9e88eb8ba42e20ed9687ec82b4ec9db420eb93a4ec96b4ec98a4eb8a9420eb8ba8eca095ed959c20ec',POINT (129.23145 35.26711)
1239,부산족발,중구,35.099598,129.02664,-,부산족발,-,광복로 13-1,-,-,오픈 11:00 / 마감 01:00,-,https://www.visitbusan.net/uploadImgs/files/cntnts/20220511132711170_ttiel,https://www.visitbusan.net/uploadImgs/files/cntnts/20220511132711170_thumbL,"부평동 돼지족발골목에 위치한 족발전문점으로, TV프로그램으로도 자주 소개되는 유명한 식당이다. 이 지역은 부산의 향토음식인 냉채족발이 탄생한 곳으로도 유명한데, 부산족발도 담백하고",POINT (129.02664 35.099598)
1240,시티바캉스,수영구,35.15693,129.11592,-,시티바캉스,-,광안로 21번가길 11-1,-,-,오픈 11:00 / 마감 20:30,-,https://www.visitbusan.net/uploadImgs/files/cntnts/20220511133129967_ttiel,https://www.visitbusan.net/uploadImgs/files/cntnts/20220511133129967_thumbL,b'ed959ceca081ed959c20eca3bced839deab080ec979020ec9e90eba6aced959c20ed8c8cec8aa4ed8380eca084ebacb8eca090ec9db820ec9db4eab3b3ec9d8020ec8aa4ed8380ec9dbceba6acec8b9ced959c20eab3b5eab084eab3bc20ec8aa4ed8380ec9dbceba6acec8b9ced959c20ec9d8cec8b9dec9cbceba19c20ed8ab9ed9e8820eca08aec9d80ec9db4eb93a420ec82acec9db4ec9790ec849c20ec9db8eab8b020eb8692eb8ba42e20eb8f84ec8bac20ec868d20ec9db4ec8389eca081ec9db820eab3b5eab084ec9790ec849cec9d9820ebb094ecba89ec8aa4eba5bc20eab2bded9798ed9598eab3a020ec8bb6eb8ba4eba9b420ec9db4ea',POINT (129.11592 35.15693)
1241,PHOever Yum(포에버얌),기장군,35.282776,129.2583,PHOever Yum(포에버얌),PHOever Yum(포에버얌),-,일광면 문오성길 43,-,-,오픈 11:30 / 마감 20:00,"왕갈비쌀국수, 분짜, 새우튀김롤",https://www.visitbusan.net/uploadImgs/files/cntnts/20220511133523476_ttiel,https://www.visitbusan.net/uploadImgs/files/cntnts/20220511133523476_thumbL,b'ed9884eca78020ed928d20ec9db8ed858ceba6acec96b4ec9d9820eba7a4ec9ea5ec9cbceba19c20eb93a4ec96b4ec98a4eba9b420eb8f99eb82a8ec9584ec9d9820ec96b4ecb48ceba788ec9d84ec979020ec9e88eb8a9420eb8a90eb828cec9db420eb939ceb8a9420ec9db4eab3b3ec9d8020ec9ca1ec8898ec998020ec868cec8aa420ec9691eb859020eb93b1ec9d8420ebaaa8eb919020eca781eca09120eba78ceb93a4eab3a020ec9e88eb8a9420ebb2a0ed8ab8eb82a8ec9d8cec8b9deca084ebacb8eca0902e20ec9584eb8a91ed959c20ebb684ec9c84eab8b0eba19c20ec97b0ec9db8eab3bc20eab080eca1b1eb93a4ec9db420eba78eec',POINT (129.2583 35.282776)
1242,물레방아 즉석구이,중구,35.10104,129.03513,-,물레방아 즉석구이,-,중앙대로41번길 11-1,-,-,오픈 11:00 / 마감 22:00,-,https://www.visitbusan.net/uploadImgs/files/cntnts/20220511134126759_ttiel,https://www.visitbusan.net/uploadImgs/files/cntnts/20220511134126759_thumbL,b'ebafb8ec8b9deab080eb93a420ec82acec9db4ec9790ec849c20eabeb8eca480ed9e8820eca28bec9d8020ed8f89eab080eba5bc20ebb09beab3a020ec9e88eb8a94203435eb858420eca084ed86b5ec9d9820eab5acec9db4eca084ebacb8eca090ec9cbceba19c2c20ed959cec9ab020ec9588eab1b0ebafb820ebb680ec9c84eba5bc20ec9588eab888ebacb4eb9dbceb8a9420ebb384ecb9adec9cbceba19c20ed8c90eba7a4ed95b420eb8d9420ec9ca0ebaa85ed959c20eab3b3ec9db4eab8b0eb8f8420ed9598eb8ba42e20ebaa85eca090ec9cbceba19c20ec9db8eca095ebb09beb8a9420eab3b3eb8bb5eab28c20eab3a0eab8b020ec84a0eb',POINT (129.03513 35.10104)
1243,양귀빈 식당 3호점,수영구,35.163265,129.116,-,양귀빈 식당 3호점,-,수영로646번길 15,-,-,오픈 17:00 / 마감 24:00,-,https://www.visitbusan.net/uploadImgs/files/cntnts/20220511135001245_ttiel,https://www.visitbusan.net/uploadImgs/files/cntnts/20220511135001245_thumbL,b'ec9584eca781ec9d8020ed9d94ed9598eab28c20ebb3b4eab8b020ed9e98eb93a020ec9691eab3a0eab8b0eab5acec9db4eca084ebacb8eca090ec9cbceba19c20ecb9b4ed8e98eba5bc20ed95b4eb8f8420ec96b4ec9ab8eba6b4eba78ced959c20ec9db8ed858ceba6acec96b4eab08020ec9db8ec8381eca081ec9db4eb8ba42e20ec8899eba0a8eb909c20eca090ec9b90ec9db420eab3a0eab8b0eba5bc20eab5acec9b8ceca3bceb8a9420ec9db4eab3b3ec9d8020ec9dbcec8b9dec9d8420eca084eab3b5ed959c20ec98a4eb8488eab08020eba78eec9d8020eab3b5ebb680eba5bc20ed86b5ed95b420eca78820eca28bec9d8020ec9691eab3',POINT (129.116 35.163265)
1244,고민끝에여기,동구,35.112698,129.03706,고민끝에여기,고민끝에여기,-,"대영로239번길 12, 1층",-,-,오픈 12:00 / 마감 20:00(재료 소진 시 마감),"통새우브리또 1인세트, 돼지고기 퀘사디아&미니샐러드, 새우타코 2조각",https://www.visitbusan.net/uploadImgs/files/cntnts/20220511135506636_ttiel,https://www.visitbusan.net/uploadImgs/files/cntnts/20220511135506636_thumbL,"향이 강한 멕시코음식을 한국인의 입맛에 맞게 만들어내는 이곳은 매일 신선한 재료를 새로 준비하고, 새우를 주재료로 한 요리들이 많다. 고민 끝에 가게자리를 정했다는 의미의 이름이 무척",POINT (129.03706 35.112698)
1245,명송초밥,중구,35.101738,129.03586,-,명송초밥,-,해관로 32,-,-,오픈 12:00 / 마감 21:40,-,https://www.visitbusan.net/uploadImgs/files/cntnts/20220511140134038_ttiel,https://www.visitbusan.net/uploadImgs/files/cntnts/20220511140134038_thumbL,b'ec8381ec9785eca780ec97adec9db820ec9db420eca780ec97adec9790ec849ceb8f8420eca091eb8c80eb829820ebaaa8ec9e84ed9598eab8b020eca28bec9d8020eab3b3ec9cbceba19c20ec9ca0ebaa85ed959c20ec9dbcec8b9deca084ebacb8eca090ec9cbceba19c2c20ec8898eca48020eb8692ec9d8020ec9d8cec8b9dec979020ec96b4ec9ab8eba6aceb8a9420eb9494ed858cec9dbced959c20ed948ceba088ec9db4ed8c85ec9db420ec9d8cec8b9dec9d8420eb8d94ec9ab120eb8f8bebb3b4ec9db4eab28c20eba78ceb93a0eb8ba42e20327e33ec8b9ceab08420ec8899ec84b1ed959c20ed9a8ceba5bc20eca09ceab3b5ed9598eab3',POINT (129.03586 35.101738)
1246,다께,동구,35.138863,129.06076,다께,다께,-,범일로102번길 12,-,-,오픈 10:00 / 마감 22:00,"죽 회석요리, 특별 회석요리1, 특별 회석요리2",https://www.visitbusan.net/uploadImgs/files/cntnts/20220511140420748_ttiel,https://www.visitbusan.net/uploadImgs/files/cntnts/20220511140420748_thumbL,"범일동의 유명 일식전문점으로 오너쉐프가 직접 주재료를 장만하고 있으며, 미리 연락해 두면 원하는 회나 직접 낚시한 생선을 요리해 주기도 한다. 벽면 가득한 유명인들의 사인이 이곳의 맛",POINT (129.06076 35.138863)
1247,남포삼계탕,중구,35.098812,129.03049,-,남포삼계탕,-,남포길 16,-,-,오픈 11:00 / 마감 22:00,-,https://www.visitbusan.net/uploadImgs/files/cntnts/20220511141051338_ttiel,https://www.visitbusan.net/uploadImgs/files/cntnts/20220511141051338_thumbL,"광복로패션거리 근처에 있는 이곳은 50년 이상 운영해 온 유명한 삼계탕 전문점으로, 대표메뉴인 삼계탕은 뱃속에 찹쌀과 인삼, 밤, 대추를 채워 넣은 닭 한 마리를 육수에 넣고 뚝배기에 끓는",POINT (129.03049 35.098812)
1248,지에이비148,수영구,35.145763,129.11497,-,지에이비148,-,"광안해변로 122, 삼익비치B상가 2층",-,-,오픈 12:00 / 마감 21:00,-,https://www.visitbusan.net/uploadImgs/files/cntnts/20220511141322616_ttiel,https://www.visitbusan.net/uploadImgs/files/cntnts/20220511141322616_thumbL,b'ec97b0ec9db8eb93a4ec9db420eba78eec9db420ecb0beeb8a94eb8ba4eb8a9420eb8ba4ec9db4eb8b9ded8e8dec9cbceba19c20eab994eb8194ed959c20ec8ba4eb82b4ec998020ec95bcec99b8ed858ceb9dbcec8aa4eab08020ec9db8ec8381eca081ec9db4eb8ba42e20ec9db4eab3b3ec9d9820ec8b9ceab7b8eb8b88ecb29820eba994eb89b4ec9db820ec8aa4ed858cec9db4ed81aceb8a9420323530eb8f84eba19c20eb8baceab688eca78420eb8f8c20ec9c84ec979020ec98aceba0a4eca0b820eba088ec96b4ebb680ed84b020ec9bb0eb8d98eab98ceca78020ebaaa8eb93a020eab5bdeab8b0ec9d9820ec8aa4ed858cec9db4ed81aceb',POINT (129.11497 35.145763)
1249,대수정,동구,35.140755,129.06291,대수정,대수정,-,자성로 133번길 46,-,-,오픈 9:00 / 마감 21:00,"솥밥정식, 갈비찜정식, 한우따닥정식",https://www.visitbusan.net/uploadImgs/files/cntnts/20220511141556325_ttiel,https://www.visitbusan.net/uploadImgs/files/cntnts/20220511141556325_thumbL,"40년 이상 운영하고 있는 한식전문점으로 직접 운영하는 농장에서 공수한 재료로 된장, 간장, 김치 등을 만들고 있으며, 질 좋은 한우를 사용한다. 솥밥과 함께 차려지는 가득한 밥상이 기분 좋",POINT (129.06291 35.140755)
1250,목장원,영도구,35.07162,129.05736,-,목장원,-,절영로 355,-,-,오픈 11:30 / 마감 21:30,-,https://www.visitbusan.net/uploadImgs/files/cntnts/20220511141757671_ttiel,https://www.visitbusan.net/uploadImgs/files/cntnts/20220511141757671_thumbL,b'ec9b90eb9e9820ec868ceba5bc20ed82a4ec9ab0eb8a9420ebaaa9ec9ea5ec9db4ec9788eb8d9820ec9db420eab3b3ec9d8020ec9881eb8f84ec9790ec849c20eab080ec9ea520ec9ca0ebaa85ed959c20ec8b9deb8bb920eca49120ed959c20eab3b3ec9cbceba19c2c20ec8b9deb8bb9eab3bc20ecb9b4ed8e9820eab3b5ec9b90ec9db420ed95a8eabb9820ec9e88eb8a9420ebb3b5ed95a9ec99b8ec8b9deab3b5eab084ec9db4eb8ba42e20ec9d8cec8b9dec9d9820ec8898eca480eb8f8420ebacb4ecb29920eb8692eca780eba78c20ec9db4eab3b3ec9790ec849c20ebb3b4ec9db4eb8a9420ebb094eb8ba4ed928deab2bdec9d8020eca095eb',POINT (129.05736 35.07162)
1251,톤쇼우,수영구,35.15631,129.12474,-,톤쇼우,-,광안해변로279번길 13,-,-,오픈 11:30 / 마감 20:00,-,https://www.visitbusan.net/uploadImgs/files/cntnts/20220511142349184_ttiel,https://www.visitbusan.net/uploadImgs/files/cntnts/20220511142349184_thumbL,b'ec98a4ed94882032ec8b9ceab08420eca084ebb680ed84b020eb8c80eab8b020eca484ec9db420ec9e88ec9d8420eba78ced81bc20ec9ca0ebaa85ed959c20eb8f88eab98cec8aa420eca084ebacb8eca090ec9cbceba19c2c20eb9190ed88bced9598eba9b4ec849ceb8f8420ebacb4ecb29920ebb680eb939ceb9facec9ab420ec9db4eab3b3ec9d9820eb8f88eab98cec8aa4eb8a9420ecb0b8ec88afec9cbceba19c20ed9b88ec97b0ed9598ec97ac20eb8680eb9dbcec9ab420eba79bec9d8420ec84a0ec82aced959ceb8ba42e20eab8b0eb8ba4eba6aceb8a9420ec8690eb8b98ec9d8420ec9c84ed959c20ebb0b0eba0a4eba19c2032ecb8b5ec',POINT (129.12474 35.15631)
1252,그라치에,영도구,35.089043,129.06154,-,그라치에,-,청학동로 12,-,-,오픈 11:30 / 마감 20:30,-,https://www.visitbusan.net/uploadImgs/files/cntnts/20220511142715519_ttiel,https://www.visitbusan.net/uploadImgs/files/cntnts/20220511142715519_thumbL,b'ebaaa8eb8d98ed959c20ec9db8ed858ceba6acec96b4ec9d9820ec9db420ec9e91eab3a020ec9888ec819c20ec9db4ed8388eba6acec958820eba088ec8aa4ed86a0eb9e91ec9d8020eba78eec9d8020ec82aceb9e8ceb93a4ec9db420ec9db4ed839ceba6acec9d8cec8b9dec9d84ec89bdeab28c20eca091ed9598eab8b820ebb094eb9dbceb8a9420eba788ec9d8cec9d8420eb8bb4ec958420ec9ab4ec9881ed9598eab3a020ec9e88eb8ba4eab3a020ed959ceb8ba42e20ed8ab9ed9e882c20ec9db4eab3b3ec9d9820eab090ec9e90eb87a8eb81bceb8a9420ec8690eb8b98eb93a4ec9db420ecb694ecb29ced9598eb8a9420eba994eb89b4ec9d',POINT (129.06154 35.089043)
1253,황해도,수영구,35.1407,129.109,-,황해도,-,수영로394번길 35-3,-,-,오픈 12:00 / 마감 23:00,-,https://www.visitbusan.net/uploadImgs/files/cntnts/20220511143741751_ttiel,https://www.visitbusan.net/uploadImgs/files/cntnts/20220511143741751_thumbL,b'eab994eb8194ed9598eab3a020eb8692ec9d8020ec8898eca480ec9d9820ec9d8cec8b9deb93a4eab3bc20ed959ceab5adeca084ed86b5eca3bceba5bc20ed95a8eabb9820eca690eab8b820ec889820ec9e88eb8a9420ed959cec8b9deca3bceca090ec9db820ec9db4eab3b3ec9d802c20ebb984eab590eca08120eb82aeec9d8020eab080eab2a9ec9cbceba19c20ec97aceb9fac20eab080eca780eba5bc20eba79bebb3bc20ec889820ec9e88eb8a9420eca3bcec9588ec8381ec9db420ec9db8eab8b020ec9e88ec9cbceba9b02c20ebacb4ec9787ebb3b4eb8ba420eca28bec9d8020eb8c80eca091ec9d8420ebb09bec9598eb8ba4eb8a9420eb',POINT (129.109 35.1407)
1254,프라한,수영구,35.146706,129.11386,-,프라한,-,남천동로108번길 52,-,-,오픈 9:30 / 마감 17:00,-,https://www.visitbusan.net/uploadImgs/files/cntnts/20220511145040294_ttiel,https://www.visitbusan.net/uploadImgs/files/cntnts/20220511145040294_thumbL,b'ebb988ed8bb0eca780ed959c20eb8a90eb828cec9d9820eab080eab5acec998020eab3b5eab084ec9d8420eab080eb939d20eba994ec9ab420ec8b9debacbceb93a4ec9db420ec9881ed999420ec868d20ec9ea5eba9b4ec9d8420ec97b0ec8381ec8b9ced82a4eb8a9420ec9db4eab3b3ec9d8020ec838ceb939cec9c84ecb998ec9d9820ebb9b5eab3bc20ec8aa4ed8a9cec9d9820ed86a0eba788ed86a0ec868cec8aa420eb93b1ec9d8420eca781eca09120eba78ceb939ceb8a9420ebb88ceb9fb0ecb998ecb9b4ed8e98eba19c2c20ec96b8eca09ceb829820ed8eb8ec9588ed959c20ebb684ec9c84eab8b0eba5bc20eca690eab8b0eb9fac20ec',POINT (129.11386 35.146706)
1255,동촌황정순수육전골,동구,35.13937,129.06071,동촌황정순수육전골,동촌황정순수육전골,-,조방로39-12,-,-,오픈 11:30 / 마감 22:00,"수육전골, 샤브샤브",https://www.visitbusan.net/uploadImgs/files/cntnts/20220511153102499_ttiel,https://www.visitbusan.net/uploadImgs/files/cntnts/20220511153102499_thumbL,b'ec9e90eab7b9eca081ec9db4eca78020ec958aeca780eba78c20ed928debb680ed959c20eba79bec9d9820eab5adebacbcec9a94eba6aceab08020ed8ab9eca795ec9db820eab3b3ec9cbceba19c2c20ebafb8eba6ac20ec82b6ec958420eab8b0eba684ec9d8420eca09ceab1b0ed959c20eab3a0eab8b0eba5bc20eb9190eabb8deab28c20ec8db0ec96b4ec849c20ec82acec9aa9ed95b420ec8b9deab090ec9db420eca28beb8ba42e20ebaaa8eb93a020ec9eaceba38ceb8a9420eab5adeb82b4ec82b0ec9d8420ec82acec9aa9ed9598eab3a020eb8ba820eb919020eab080eca78020eba994eb89b4eba78c20eca095ec84b1eabb8f20eca480eb',POINT (129.06071 35.13937)
1256,소우닭계,동구,35.13942,129.0646,소우닭계,소우닭계,-,조방로 16번길 20,-,-,오픈 9:30 / 마감 21:30,"매운 찜갈비 정식, 왕갈비탕, 한우 육개장",https://www.visitbusan.net/uploadImgs/files/cntnts/20220511154322467_ttiel,https://www.visitbusan.net/uploadImgs/files/cntnts/20220511154322467_thumbL,b'ec9db4eba684ecb298eb9fbc20ec868cec998020eb8badec9d8420ec82acec9aa9ed959c20ed959cec8b9dec9a94eba6aceba5bc20eca084ebacb8ec9cbceba19c20ed9598eb8a9420eab3b3ec9cbceba19c2c20ec98a4eb8488ec8990ed9484ec9d9820ebb984ebb295ec9cbceba19c20eba78ceb93a020ebb680eb939ceb9facec9ab420eab088ebb984ecb09cec9db420ec9ca0ebaa85ed9598eb8ba42e20ebb091ebb098ecb0aceab98ceca78020eca781eca09120ec9ea5eba78ced9598eab3a020ec9e88eb8a9420ec9db4eab3b3ec9d8020ed98bcec9e90ec849ceb8f8420eab088ebb984ecb09cec9d8420eba8b9ec9d8420ec889820ec9e88eb',POINT (129.0646 35.13942)
1257,양지추어탕,동구,35.130672,129.04565,양지추어탕,양지추어탕,-,중앙대로371번길 70-4,-,-,오픈 11:00 / 마감 20:00,"추어탕, 추어튀김, 코다리찜",https://www.visitbusan.net/uploadImgs/files/cntnts/20220511160051644_ttiel,https://www.visitbusan.net/uploadImgs/files/cntnts/20220511160051644_thumbL,"커다란 가마솥으로 끓인 추어탕에 농가에서 공수한 고춧가루를 사용하고, 직접 담은 김치를 사용하는 안심할 수 있는 식당이다. 저렴한 가격에 비해 놀라운 맛과 푸짐한 양의 음식이 제공되어",POINT (129.04565 35.130672)
1258,오스테리아비비,동구,35.12526,129.03906,오스테리아비비,오스테리아비비,-,홍곡남로18번길 5 (네이버를 통한 예약만 가능),-,-,오픈 12:00 / 마감 21:30,"프로슈토 피자, 단일코스 1인 (스테이크+티라미수+기타)",https://www.visitbusan.net/uploadImgs/files/cntnts/20220511161310859_ttiel,https://www.visitbusan.net/uploadImgs/files/cntnts/20220511161310859_thumbL,b'ec9db4ed8388eba6acec958420ec9a94eba6aced9599eab59020ecb69cec8ba020ec8990ed9484ec998020eb8298ed8fb4eba6aced94bcec9e9020ec9ea5ec9db8ed9891ed9a8cec9790ec849c20ec9db8eca095ed959c20ed94bcec9e90ec9a9ceba19ceab08020ec9ab4ec9881ed9598eab3a020ec9e88eb8a9420ec9db4eab3b3ec9d8020ed8f89ec9dbc20eb9fb0ecb998eb8a9420ed9994eb8d95ed94bcec9e90eba78c2c20eb9494eb8488ec998020eca3bceba790ec9d8020ecbd94ec8aa4eba78c20eca09ceab3b5eb909ceb8ba42e203130302520ec9888ec95bdeca09ceba19c20ec9ab4ec9881ed9598eb8a9420eba088ec8aa4ed86a0eb9e',POINT (129.03906 35.12526)
1259,웅복,동구,35.130657,129.0478,웅복,웅복,-,"진성로28번길 19, 1층",-,-,오픈 11:30 / 마감 22:00,"복코스, 복불고기정식, 은복",https://www.visitbusan.net/uploadImgs/files/cntnts/20220511162214691_ttiel,https://www.visitbusan.net/uploadImgs/files/cntnts/20220511162214691_thumbL,b'ebb680ebb680eab08020ec9ab4ec9881ed9598eab3a020ec9e88eb8a9420ebb3b5ec96b4ec9a94eba6aceca084ebacb8eca090ec9cbceba19c20ec8b9dec82acec979020eb8f8cec86a5ebb0a5ec9db420eca09ceab3b5eb9098eb8a9420eab283ec9db420ed8ab9eca795ec9db4eb8ba42e20eca781eca09120eb8bb4ec9d8020eab980ecb998eba5bc20ec82acec9aa9ed9598eba9b02c20eb8bb9ec9dbc20ec9eaceba38ceb8a9420eb8bb9ec9dbc20ec868ceca784ed9598eab3a020ec9e88eb8a9420ec9db4eab3b3ec9d9820ecbd94ec8aa4ec9a94eba6aceb8a9420eab080eab2a9ec979020ebb984ed95b420eb8680eb9dbcec9ab820eca095eb',POINT (129.0478 35.130657)
1260,초량통닭,동구,35.118904,129.03996,초량통닭,초량통닭,-,초량로 15,-,-,오픈 16:00 / 마감 21:30,"후라이드, 닭도리탕, 백숙",https://www.visitbusan.net/uploadImgs/files/cntnts/20220511163126270_ttiel,https://www.visitbusan.net/uploadImgs/files/cntnts/20220511163126270_thumbL,"1976년부터 40년이 넘게 운영하고 있는 이곳은, 이 지역에서는 모르는 사람이 드문 유명한 식당이다. 이곳의 육즙 가득한 프라이드치킨은 오랫동안 사랑받아온 메뉴로, 언제나 퇴근 후의 직장인",POINT (129.03996 35.118904)
1261,코카모메 초량점,동구,35.116886,129.0351,코카모메 초량점,코카모메 초량점,-,영초윗길20,-,-,오픈 11:30 / 마감 20:00,"코카모메텐동, 에비텐동, 스페셜텐동",https://www.visitbusan.net/uploadImgs/files/cntnts/20220511164125446_ttiel,https://www.visitbusan.net/uploadImgs/files/cntnts/20220511164125446_thumbL,"초량 이바구길의 도심전망이 좋은 곳에 위치한 튀김덮밥전문점으로, 연령층에 관계없이 만족스런 식사로 인기 높은 식당이다. 모든 재료는 국내산으로 준비하고 당일재료는 당일에 소진하고",POINT (129.0351 35.116886)
1262,홍성방,동구,35.113834,129.03781,홍성방,홍성방,-,중앙대로 179번길 16,-,-,오픈 11:00 / 마감 21:00,"물만두, 오향장육, 팔보채",https://www.visitbusan.net/uploadImgs/files/cntnts/20220511165119901_ttiel,https://www.visitbusan.net/uploadImgs/files/cntnts/20220511165119901_thumbL,b'33eb8c80ec979020eab1b8ecb390203530eb8584ec9db420eb8498eab28c20ec9ab4ec9881ed95b4ec98a4eab3a020ec9e88eb8a9420ec9db4eab3b3ec9d802c20ebb680ec82b0ecb0a8ec9db4eb8298ed8380ec9ab4ec9790ec849ceb8f8420eab080ec9ea520ec9ca0ebaa85ed959c20ec8b9deb8bb920eca49120ed959c20eab3b3ec9db4eb8ba42e20ec98a4eb9e98eca084ebb680ed84b020ec9881eca3bceb8f9920ebacbceba78ceb919020eca791ec9cbceba19c20ebb688eba0b8ec9d8420eba78ced81bc20ebacbceba78ceb9190eab08020ec9db8eab8b020ec9e88ec9cbceba9b02c20eca3bceba790ec9790eb8a9420eca780ebb0a9ec97',POINT (129.03781 35.113834)
1263,가두리닭숯불구이,동래구,35.204994,129.07947,가두리닭숯불구이,가두리닭숯불구이,-,충렬대로179번길 27-3 1층,-,-,오픈 16:00 / 마감 02:00,"닭구이 6가지 부위 중 3가지 선택 소금구이, 양념구이",https://www.visitbusan.net/uploadImgs/files/cntnts/20220511172410854_ttiel,https://www.visitbusan.net/uploadImgs/files/cntnts/20220511172410854_thumbL,b'ec9db4eab3b3ec9d8020ec868ceb829820eb8fbceca780ecb298eb9fbc20eb8badec9d842036eab080eca78020ebb680ec9c84eba19c20eab5acebb684ed9598ec97ac20ec9b90ed9598eb8a9420ebb680ec9c84eba78c20eca3bcebacb8ed95a020ec889820ec9e88eb8a9420eb8f85ed8ab9ed959c20ebb0a9ec8b9dec9d9820eb8badeab5acec9db4eca084ebacb8eca090ec9cbceba19c2c20ec9a94eba6aceab2bdec9881ed9599eab3bc20ecb69cec8ba0ec9d9820ec98a4eb8488eab08020ec95bcecb184ec998020ec839deb8badec9d8420eca781eab1b0eb9e98eba19c20eab3b5ec8898ed9598ec97ac20ec9eaceba38cec9d9820ec8ba0ec',POINT (129.07947 35.204994)
1264,먹음직,동래구,35.19219,129.1003,먹음직,먹음직,-,온천천로431번길 4-1,-,-,오픈 12:00 / 마감 22:00,"목살, 먹음직살, 된장술밥",https://www.visitbusan.net/uploadImgs/files/cntnts/20220511173540705_ttiel,https://www.visitbusan.net/uploadImgs/files/cntnts/20220511173540705_thumbL,"온천천 카페거리에 있는 구이전문점인 이곳은, 유통도 함께 하고 있어 언제나 신선한 고기가 준비되어 있다. 직접 숙성한 고기와 함께 모든 음식을 정직하고 정성스럽게 제공하고 있는 곳으로",POINT (129.1003 35.19219)
1265,미미루,동래구,35.219486,129.08296,미미루,미미루,-,온천장로 91-1,-,-,오픈 11:30 / 마감 21:00,"짜장면, 볶음밥, 탕수육",https://www.visitbusan.net/uploadImgs/files/cntnts/20220511174445294_ttiel,https://www.visitbusan.net/uploadImgs/files/cntnts/20220511174445294_thumbL,b'ec9ca0eb8b88ed81aced959c20eba088ec8b9ced94bceba19c20ec9db8eab8b020eb8692ec9d8020eca491ec8b9deb8bb9ec9db820ec9db4eab3b3ec9d802c2036ec8b9ceab08420ec9db4ec838120ec8899ec84b1ed959c20eab3a0eab8b0eba19c20eba78ceb93a020ed8395ec8898ec9ca1eab3bc20ebacbcec9d8420ec82acec9aa9ed9598eca78020ec958aeab3a020ec9691ed8c8ceca699ec9cbceba19c20eca1b0eba6aced959c20eca79cec9ea5eba9b4ec9db420ed8ab9ed9e8820ec9db8eab8b020ec9e88eb8ba42e20ec8b9dec82aceba598ec9d9820ec9d8cec8b9dec9790eb8a9420ebaaa8eb919020eab384eb9e80ed9484eb9dbcec9d',POINT (129.08296 35.219486)
1266,밀보스79,동래구,35.2058,129.08028,밀보스79,밀보스79,-,명륜로129번나길 11,-,-,오픈 12:00 / 마감 01:00,"화덕 큐브스테이크, 게새피자, 생면 로제 파스타",https://www.visitbusan.net/uploadImgs/files/cntnts/20220511175416697_ttiel,https://www.visitbusan.net/uploadImgs/files/cntnts/20220511175416697_thumbL,b'ecba90eca3bcec96bced959c20ebb684ec9c84eab8b0ec9d9820ec8ba4eb82b4eab08020eba8bceca08020eb8888ec979020eb93a4ec96b4ec98a4eb8a9420ec9db4eab3b3ec9d802c20ed8c8cec8aa4ed8380eb829820ed94bcec9e9020eb93b1ec9d9820eba994eb89b4ec998020ed95a8eabb9820ec88a0ec9d8420eca690eab8b820ec889820ec9e88eb8a9420eb8ba4ec9db4eb8b9ded8e8dec9cbceba19c2c20ebb984eab590eca08120ebb680eb8bb420ec9786eb8a9420eab080eab2a9ec9cbceba19c20eca28bec9d8020ec8b9ceab084ec9d8420ebb3b4eb82bc20ec889820ec9e88eb8a9420eab3b3ec9db4eb8ba42e20eca781eca09120eb',POINT (129.08028 35.2058)
1267,순이네곱창,동래구,35.198902,129.09865,순이네곱창,순이네곱창,-,충렬대로 359번길 24,-,-,오픈 15:00 / 마감 24:00,"솔잎양념곱창구이, 한우곱창전골, 와인삼겹살",https://www.visitbusan.net/uploadImgs/files/cntnts/20220512092026544_ttiel,https://www.visitbusan.net/uploadImgs/files/cntnts/20220512092026544_thumbL,대한민국 조리기능장인 오너쉐프는 밑반찬부터 주재료인 곱창의 손질까지 모두 직접 장만하고 있다. 솔잎을 사용하여 잡냄새를 제거하여 더 부드러운 맛을 가진 이곳의 곱창은명인이 준비한,POINT (129.09865 35.198902)
1268,세연정,동래구,35.20514,129.07704,세연정,세연정,-,충렬대로 149,-,-,오픈 11:00 / 마감 22:00,"특갈비살, 양념갈비 3대, 갈비살소금구이",https://www.visitbusan.net/uploadImgs/files/cntnts/20220512093357835_ttiel,https://www.visitbusan.net/uploadImgs/files/cntnts/20220512093357835_thumbL,"소갈비로 유명한 구이전문 패밀리레스토랑으로 청결한 공간과 높은 수준의 서비스를 자랑하는 이곳은, 직거래하는 향토 식자재와 직접 만든 된장, 유명한 산지에서 공수한 재료들을 사용하여",POINT (129.07704 35.20514)
1269,조방낙지마당,동래구,35.19913,129.05907,조방낙지마당,조방낙지마당,-,사직북로47번길 14-4,-,-,오픈 10:00 / 마감 21:00,"낙지볶음, 낙새, 낙곱",https://www.visitbusan.net/uploadImgs/files/cntnts/20220512094717830_ttiel,https://www.visitbusan.net/uploadImgs/files/cntnts/20220512094717830_thumbL,"조방낙지라는 이름의 식당들은 대부분 보증된 맛을 가지고 있는데, 이곳 역시 보증된 낙지전문점이다. 이 지역에서 오랜 시간을 보내온 식당답게 단골손님도 많고, 다른 낙지전문점에 비해 낮",POINT (129.05907 35.19913)
1270,초록담미역국,동래구,35.194927,129.05786,초록담미역국,초록담미역국,-,사직로 73,-,-,오픈 10:00 / 마감 21:00,"조개미역국, 가자미미역국, 한우미역국",https://www.visitbusan.net/uploadImgs/files/cntnts/20220512100320359_ttiel,https://www.visitbusan.net/uploadImgs/files/cntnts/20220512100320359_thumbL,"미역국에 사용되는 한우는 비계와 힘줄을 직접 제거하고, 직접 만든 반찬과 양념, 그리고 매일 새로 담근 김치를 준비한다. 이곳은 집밥같은 음식을 준비하는 미역국전문점으로 자극적이지 않",POINT (129.05786 35.194927)
1271,타이빈,동래구,35.216263,129.0773,타이빈,타이빈,-,금강로73번길 12,-,-,오픈 11:00 / 마감 22:00,"크랩 팟 퐁 커리, 뿌님 팟 퐁 커리, 탈래 팟 프릭 파우",https://www.visitbusan.net/uploadImgs/files/cntnts/20220512101521175_ttiel,https://www.visitbusan.net/uploadImgs/files/cntnts/20220512101521175_thumbL,"태국 정부로부터 Thai select 최고등급인 signature 인증을 받았다는 태국음식전문점으로, 태국인요리사가 준비하는 정통태국음식이 준비되어 있다. 태국으로 여행 온 기분을 느끼게 해주는 인테리",POINT (129.0773 35.216263)
1272,경찰서 옆 초밥집,부산진구,35.159702,129.05392,경찰서 옆 초밥집,경찰서 옆 초밥집,-,"부전로 111번길 15, 대동레미안더오션 1층 103호",-,-,오픈 17:00 / 마감 22:00,"추천초밥 12p, 광어+연어초밥 10p, 생선턱살구이",https://www.visitbusan.net/uploadImgs/files/cntnts/20220512104118922_ttiel,https://www.visitbusan.net/uploadImgs/files/cntnts/20220512104118922_thumbL,18년 경력의 오너 쉐프가 모든 재료를 직접 만들고 손질한다. 매일 5시간씩 정성껏 준비한 재료와 알찬 구성 그리고 보증된 솜씨로 만들어 내는 초밥은 당신을 실망시키지 않는다.,POINT (129.05392 35.159702)
1273,동백아가씨1961,부산진구,35.158566,129.064,동백아가씨1961,동백아가씨1961,-,서전로37번길 18,-,-,오픈 11:30 / 마감 21:30,"빨간동백떡볶이, 하얀동백떡볶이, 떡꼬치",https://www.visitbusan.net/uploadImgs/files/cntnts/20220512105240390_ttiel,https://www.visitbusan.net/uploadImgs/files/cntnts/20220512105240390_thumbL,b'ebb988ed8bb0eca780ed959c20ec9db8ed858ceba6acec96b4ec9d9820ecb9b4ed8e9820eab099ec9d8020ec9db4eab3b3ec9d8020eb8680eb9e8deab28ceb8f8420ec9ca0ebaa85ed959c20eca689ec849deb96a1ebb3b6ec9db420eca084ebacb8eca090ec9db4eb8ba42e20ec9ca0ebaa85ec82b0eca780ec9d9820eab3a0ecb6a7eab080eba3a8eba5bc20ec82acec9aa9ed9598eb8a9420eb93b120eca28bec9d8020ec9eaceba38ceba5bc20ec82acec9aa9ed9598eab3a02c20eb9dbceba9b4ebb680ed84b020eb8f88eab98cec8aa4eab98ceca78020eb8ba4ec9691ed959c20ed86a0ed9591ec9d8420ecb694eab080ed95a020ec889820ec9e',POINT (129.064 35.158566)
1274,로위버거,부산진구,35.156338,129.06004,로위버거,로위버거,-,"서전로10번길 31-4, 1층",-,-,오픈 12:00 / 마감 21:00,"새우버거, 와우웅버거, 시그니처 감자튀김",https://www.visitbusan.net/uploadImgs/files/cntnts/20220512110929592_ttiel,https://www.visitbusan.net/uploadImgs/files/cntnts/20220512110929592_thumbL,100% 통새우로 만든 패티와 수제 와사비 소스로 맛을 낸 통새우버거가 인기메뉴인 이곳은 오리지널 레시피 개발과 독특한 분위기로 인기 높은 수제버거전문점이다. 매일 100개 한정 판매라고 하,POINT (129.06004 35.156338)
1275,장어촌,부산진구,35.15863,129.05667,장어촌,장어촌,-,부전로96번길 36,-,-,오픈 11:00 / 마감 23:00,"민물장어구이, 바다장어구이, 장어덮밥",https://www.visitbusan.net/uploadImgs/files/cntnts/20220512112108020_ttiel,https://www.visitbusan.net/uploadImgs/files/cntnts/20220512112108020_thumbL,"부산에서 장어구이를 이야기할 때 항상 최고로 거론되는 곳 중 한 곳으로, 주문즉시 장만한 장어와 6시간을 끓여 만든 특제한방소스를 경험해 본다면 누구나 그 사실을 인정할 수밖에 없을 것",POINT (129.05667 35.15863)
1276,전통음식점 원양,부산진구,35.172222,129.06995,전통음식점 원양,전통음식점 원양,-,동평로 420번길 23,-,-,오픈 11:00 / 마감 23:00,"한돈모둠, 청둥오리능이백숙, 한돈김치찌개",https://www.visitbusan.net/uploadImgs/files/cntnts/20220512113115093_ttiel,https://www.visitbusan.net/uploadImgs/files/cntnts/20220512113115093_thumbL,"좋은 재료로 직접담은 김치와 밑반찬, 시골집에서 공수한 장류 및 장아찌들을 사용하여 30년이 넘게 꾸준히 직장인들의 사랑을 받아온 곳으로, 미식가들 사이에서 특히 평이 좋은 곳이라 한다.",POINT (129.06995 35.172222)
1277,항정살구공탄,부산진구,35.165436,129.03777,항정살구공탄,항정살구공탄,-,동평로 75,-,-,오픈 17:00 / 마감 24:00,"항정살, 마늘항정살, 껍데기",https://www.visitbusan.net/uploadImgs/files/cntnts/20220512114353372_ttiel,https://www.visitbusan.net/uploadImgs/files/cntnts/20220512114353372_thumbL,b'eca3bcebacb8eab3bc20ed95a8eabb9820ec8db0ec96b4eb82b4eb8a9420eab3a0eab8b0eb8a9420ed8faceba5bc20eb9ca8eb8a9420ebb0a9ec8b9dec9cbceba19c20ec8db0ec96b420eb8d9420eca28bec9d8020ec8b9deab090ec9d8420ec9e90eb9e91ed959ceb8ba42e20eb909cec9ea5ecb08ceab09ceba19ceb8f8420ec9ca0ebaa85ed959c20ec9db4eab3b3ec9d8020ec98a4eca78120ed95adeca095ec82b4eba78c20eca084ebacb8eca081ec9cbceba19c20ecb7a8eab889ed9598eab3a020ec9e88eb8a9420eab5acec9db4eca084ebacb8eca090ec9cbceba19c20ec9ab4ec9db420eca28beb8ba4eba9b420ec9ca0ecbe8ced959c20ec',POINT (129.03777 35.165436)
1278,금용,북구,35.205463,128.99666,금용,금용,-,구포만세길 75,-,-,오픈 10:30 / 마감 20:30,"찐만두, 군만두, 오향장육",https://www.visitbusan.net/uploadImgs/files/cntnts/20220512130126929_ttiel,https://www.visitbusan.net/uploadImgs/files/cntnts/20220512130126929_thumbL,"1960년부터 운영해온 중국만두전문점으로 찐돼지껍질과 사태, 소꼬리 살로 소를 만드는 산둥식 만두를 만들고 있다. 준비해둔 재료가 언제나 당일 소진이 될 정도로 인기가 높다.",POINT (128.99666 35.205463)
1279,웅천집,북구,35.26257,129.0153,웅천집,웅천집,-,금곡대로616번길 7-14,-,-,오픈 11:30 / 마감 21:30,"향어회, 메기매운탕, 장어구이",https://www.visitbusan.net/uploadImgs/files/cntnts/20220512131313725_ttiel,https://www.visitbusan.net/uploadImgs/files/cntnts/20220512131313725_thumbL,b'31393634eb8584ebb680ed84b02033eb8c80eca7b820ec9ab4ec9881ed9598eab3a020ec9e88eb8a9420eca084ed86b520ec9e88eb8a9420ec8b9deb8bb9ec9cbceba19c2c2033eb858420ec8899ec84b120ecb488ec9ea5ec9cbceba19c20eba78ceb93a020ed8ab9eca09cec868cec8aa4ec998020eba8b9eb8a9420ed96a5ec96b4ed9a8ceab08020ed8ab9ed9e8820ec9ca0ebaa85ed9598eca780eba78c2c20eab3a0ebafbc20eb819dec979020eab2b0eab5ad20ec9ea5ec96b4eab5acec9db4ec998020eba7a4ec9ab4ed8395eab98ceca78020ebaaa8eb93a020eba994eb89b4eba5bc20eba8b9eab28c20eb909ceb8ba4eb8a9420ebacb4ec84',POINT (129.0153 35.26257)
1280,이종임 전복뚝배기,북구,35.230835,129.00897,이종임 전복뚝배기,이종임 전복뚝배기,-,화명대로 12번길 91,-,-,오픈 11:00 / 마감 21:00,"전복한우갈비찜, 전복해물탕, 전복버터구이",https://www.visitbusan.net/uploadImgs/files/cntnts/20220512133553898_ttiel,https://www.visitbusan.net/uploadImgs/files/cntnts/20220512133553898_thumbL,"전복요리를 전문으로 하는 이 곳은 신선하고 부드러운 완도산 활전복을 사용하고, 새로운 음식인 전복한우갈비찜을 개발하여 방송에 소개되기도 했다. 전체적으로 염도가 낮은 건강한 음식을",POINT (129.00897 35.230835)
1281,평양집,북구,35.212116,129.00589,평양집,평양집,-,금곡대로 20번길 21,-,-,오픈 11:00 / 마감 20:00,"만두백반, 만두전골, 녹두전",https://www.visitbusan.net/uploadImgs/files/cntnts/20220512143357001_ttiel,https://www.visitbusan.net/uploadImgs/files/cntnts/20220512143357001_thumbL,"24년째 운영 중인 평양식 수제만두집으로 흔치 않은 이북식 음식을 만날 수 있는 곳이다. 새벽마다 직접 만든 만두로 손님을 맞이하고 있으며, 100% 녹두를 이용해 만든 녹두전도 인기메뉴다.",POINT (129.00589 35.212116)
1282,대왕불맛,사상구,35.17614,128.99005,대왕불맛,대왕불맛,-,"덕상로 54, 1층",-,-,오픈 16:00 / 마감 02:00,"막창반 곱창반, 불막창, 불곱창",https://www.visitbusan.net/uploadImgs/files/cntnts/20220512145041261_ttiel,https://www.visitbusan.net/uploadImgs/files/cntnts/20220512145041261_thumbL,"이곳은 테이크아웃과 배달을 전문으로 하는 내장요리전문점으로, 국내산 곱창·막창을 직화구이로 조리하여 제공한다. 수제양념으로 곱창 특유의 잡냄새를 제거한 매운 곱창메뉴가 인기 있다",POINT (128.99005 35.17614)
1283,올리브장작,사상구,35.162926,128.98746,올리브장작,올리브장작,-,"광장로 101, 1,2층",-,-,오픈 11:30 / 마감 21:30,"해물오일파스타, 카프레제샐러드, 마르게리따 피자",https://www.visitbusan.net/uploadImgs/files/cntnts/20220512154744132_ttiel,https://www.visitbusan.net/uploadImgs/files/cntnts/20220512154744132_thumbL,통나무 산장에 들어온 듯한 인테리어가 편안한 분위기를 만들고 있는 이곳은 화덕피자와 파스타로 유명한 이탈리안 레스토랑이다. 변하지 않는 꾸준한 맛으로 단골이 많은곳이다.,POINT (128.98746 35.162926)
1284,전골[그집],사상구,35.149475,129.00208,전골[그집],전골[그집],-,"가야대로 268-15, 1층",-,-,오픈 17:00 / 마감 22:00,"얼큰한차돌박이전골, 차돌박이 숙주볶음, 비빔골뱅이",https://www.visitbusan.net/uploadImgs/files/cntnts/20220512155859812_ttiel,https://www.visitbusan.net/uploadImgs/files/cntnts/20220512155859812_thumbL,1년이 넘는 시간을 연구하여 만든 레시피로 만든 전골은 다소 찾기 힘든 골목 안쪽의 가게를 사람들로 북적이게 만들었다. 누구나 좋아할 것 같은 국물요리다.,POINT (129.00208 35.149475)
1285,하오츠,사상구,35.155018,128.99106,하오츠,하오츠,-,"학감대로270, 1층 104호",-,-,오픈 11:30 / 마감 22:00,"삼선짬뽕, 탕수육, 칠리새우",https://www.visitbusan.net/uploadImgs/files/cntnts/20220512162629589_ttiel,https://www.visitbusan.net/uploadImgs/files/cntnts/20220512162629589_thumbL,b'eab7bcecb298ec979020eab480eab3b5ec849ceab08020eba78eec958420eca090ec8bacec9db4eba9b420eca781ec9ea5ec9db8eb93a4ec9db420ebaab0eba0a4eb939ceb8a9420eca491ec8b9deb8bb9ec9cbceba19c20ec98a4eb8488ec8990ed9484eab08020eca781eca09120ec84a0ebb384ed959c20eca28bec9d8020ec9eaceba38ceba5bc20ec82acec9aa9ed959ceb8ba4eab3a020ed959ceb8ba42e20eca491ec8b9deb8bb920ecb998eab3a0eb8a9420eca1b0eba6acec8b9ceab084ec9db420eca1b0eab88820eab8b420ed8eb8ec9db4eb82982c20eab7b8eba78ced81bcec9d9820eba79bec9db420ebb3b4ec9ea5eb9098ec96b420ec',POINT (128.99106 35.155018)
1286,함양본가어탕국수,사상구,35.159695,128.98518,함양본가어탕국수,함양본가어탕국수,-,사상로181번길36,-,-,오픈 9:00 / 마감 22:00,"어탕국수, 참깨메기매운탕",https://www.visitbusan.net/uploadImgs/files/cntnts/20220512164338161_ttiel,https://www.visitbusan.net/uploadImgs/files/cntnts/20220512164338161_thumbL,민물생선을 갈아서 만든 어탕국수는 생각보다 찾기 어려운 음식이다. 그래서인지 먼 거리에서 찾아오는 손님도 제법 많다는 이곳의 어탕국수는 많이 맵거나 자극적이지 않고 변함없는 맛으로,POINT (128.98518 35.159695)
1287,오공떵번,사하구,35.105663,128.9738,오공떵번,오공떵번,-,"승학로 50, 1층",-,-,오픈 11:00 / 마감 21:00,"후띠우, 분짜, 넴",https://www.visitbusan.net/uploadImgs/files/cntnts/20220512165954952_ttiel,https://www.visitbusan.net/uploadImgs/files/cntnts/20220512165954952_thumbL,"한국에서 흔하게 맛볼 수 있는 쌀국수는 ‘포’라는 하노이식 쌀국수라면, 이곳은 ‘후띠우’라는 호치민식 쌀국수를 만들고 있다. ‘포’와는 달리 향이 강하지 않아 누구나 쉽게 즐길 수 있",POINT (128.9738 35.105663)
1288,옥미아구찜 하단점,사하구,35.105244,128.9706,옥미아구찜 하단점,옥미아구찜 하단점,-,승학로2번길 34,-,-,오픈 10:30 / 마감 21:30,"아구찜, 해물아구찜",https://www.visitbusan.net/uploadImgs/files/cntnts/20220512171230301_ttiel,https://www.visitbusan.net/uploadImgs/files/cntnts/20220512171230301_thumbL,b'ec9584eab5acecb09ceca084ebacb8eca090ec9db420eba78eec9d8020ebb680ec82b0ec9790ec849ceb8f8420eab080ec9ea520ec9ca0ebaa85ed959c20ec8b9deb8bb920eca49120ed959c20eab3b3ec9db820ec98a5ebafb8ec9584eab5acecb09cec9d9820ebb684eca090ec9cbceba19c2c20ec839dec9584eab780eba5bc20ec82acec9aa9ed9598ec97ac20eba7b5eca78020ec958aeab3a020ed928debb680ed959c20eba79bec9d9820ec9584eab5acecb09cec9d8420eba78ceb93a4eab3a020ec9e88eb8ba42e20ebb680ec82b0ed96a5ed86a0ec9d8cec8b9deca090ec9cbceba19c20eca780eca095eb9098ec96b420ec9e88eb8a9420ea',POINT (128.9706 35.105244)
1289,우연횟집,사하구,35.11137,128.96355,우연횟집,우연횟집,-,"낙동대로535번길18, 1층",-,-,오픈 18:00 / 마감 24:00,"모듬회, 활어회",https://www.visitbusan.net/uploadImgs/files/cntnts/20220512175424144_ttiel,https://www.visitbusan.net/uploadImgs/files/cntnts/20220512175424144_thumbL,"오픈 전 웨이팅으로 유명한 횟집으로, 주문 즉시 잡은 활어를 사용한다. 두툼한 회를 접시가 넘치도록 담아서 주는데 가격마저 저렴한 편이라, 대학가 상권인 이 지역에서 가장 인기 있는 주점",POINT (128.96355 35.11137)
